{"type":"FeatureCollection","name":"bay_head_road_centerlines","metadata":{"source":"NJOGIS NG911 Road Centerlines (Tran_road)","url":"https://services2.arcgis.com/XVOqAjTOJ5P6ngMu/arcgis/rest/services/Tran_road/FeatureServer/0","query_url":"https://services2.arcgis.com/XVOqAjTOJ5P6ngMu/arcgis/rest/services/Tran_road/FeatureServer/0/query","retrieved_at_utc":"2026-09-04T20:04:59.295189+00:00","source_last_edit_date":1785341586960,"out_sr":4326,"query_envelope_wgs84":[-74.0553585,40.0575576,-74.040163,40.080443],"spatial_relationship":"esriSpatialRelIntersects","boundary_file":"bay_head_boundary.geojson","boundary_sha256":"18b8da8533eaddf57ecd9c22e8b221c8213dedaeaccb5106713ad4ef49f4412d","fields":["OBJECTID","PRIMENAME","ELEVTYP_F","ELEVTYP_T"],"feature_count":285,"complete_objectid_inventory_verified":true,"municipal_clipping":"Envelope selection only; clip against the actual municipal boundary in the application."},"features":[{"type":"Feature","id":2493,"properties":{"OBJECTID":2493,"PRIMENAME":"Perch Hole Point Place","ELEVTYP_F":0,"ELEVTYP_T":0},"geometry":{"type":"LineString","coordinates":[[-74.052684145999,40.0645539039116],[-74.0526662839218,40.0645480425728],[-74.0525550822344,40.0645000087008],[-74.0516091183243,40.0639220842593]]}},{"type":"Feature","id":2699,"properties":{"OBJECTID":2699,"PRIMENAME":"Michele Lane","ELEVTYP_F":0,"ELEVTYP_T":0},"geometry":{"type":"LineString","coordinates":[[-74.0414693852052,40.0785647852417],[-74.0414616844443,40.0786047815533],[-74.0414688865557,40.07863912646],[-74.0414873531732,40.0786620681449],[-74.0415244949173,40.0786765181491],[-74.0420928096032,40.0788617966652]]}},{"type":"Feature","id":2825,"properties":{"OBJECTID":2825,"PRIMENAME":"Ocean Avenue","ELEVTYP_F":0,"ELEVTYP_T":0},"geometry":{"type":"LineString","coordinates":[[-74.0420928096032,40.0788617966652],[-74.0420233010541,40.0789787191472],[-74.0419624094611,40.0790579555404],[-74.0418624832717,40.0791701461014],[-74.0416712136802,40.0794045252784],[-74.0414972928769,40.0796257416184],[-74.041414680072,40.079724767326],[-74.0413581020304,40.0798106369535],[-74.0412927279367,40.0799130525743],[-74.0412316109183,40.0800254511796],[-74.041179188166,40.0801311848338],[-74.0411352962961,40.0802435966635],[-74.0411039740769,40.0803309928926]]}},{"type":"Feature","id":3175,"properties":{"OBJECTID":3175,"PRIMENAME":"Oak Drive","ELEVTYP_F":0,"ELEVTYP_T":0},"geometry":{"type":"LineString","coordinates":[[-74.0500213758319,40.0726755948781],[-74.0484381123785,40.0724533776893]]}},{"type":"Feature","id":3502,"properties":{"OBJECTID":3502,"PRIMENAME":"Anchor Court","ELEVTYP_F":0,"ELEVTYP_T":0},"geometry":{"type":"LineString","coordinates":[[-74.0537923487084,40.0654125021837],[-74.0538660502435,40.065472791235],[-74.053997643213,40.0655557952787],[-74.0541785658981,40.0656738819419],[-74.0545033510832,40.0659003852605]]}},{"type":"Feature","id":3757,"properties":{"OBJECTID":3757,"PRIMENAME":"Warren Place","ELEVTYP_F":0,"ELEVTYP_T":0},"geometry":{"type":"LineString","coordinates":[[-74.0507145995671,40.0784392836303],[-74.0509159368831,40.0780652732766]]}},{"type":"Feature","id":3917,"properties":{"OBJECTID":3917,"PRIMENAME":"Holly Avenue","ELEVTYP_F":0,"ELEVTYP_T":0},"geometry":{"type":"LineString","coordinates":[[-74.0500213758319,40.0726755948781],[-74.0499039123905,40.0731592489643]]}},{"type":"Feature","id":4081,"properties":{"OBJECTID":4081,"PRIMENAME":"Maryland Avenue","ELEVTYP_F":0,"ELEVTYP_T":0},"geometry":{"type":"LineString","coordinates":[[-74.0419999676401,40.077132647594],[-74.0414690733407,40.0769490550957]]}},{"type":"Feature","id":4236,"properties":{"OBJECTID":4236,"PRIMENAME":"FR CO 635 to RT 35 NB","ELEVTYP_F":0,"ELEVTYP_T":0},"geometry":{"type":"LineString","coordinates":[[-74.0423483891643,40.0784214418853],[-74.0424470326144,40.0784449716074],[-74.0425452212258,40.0784695984664],[-74.0426163331164,40.0784881957475],[-74.0427691876989,40.0785385376815],[-74.042921100033,40.0785905356516]]}},{"type":"Feature","id":6707,"properties":{"OBJECTID":6707,"PRIMENAME":"Goetze Street","ELEVTYP_F":0,"ELEVTYP_T":0},"geometry":{"type":"LineString","coordinates":[[-74.0488650201491,40.0616926318846],[-74.0474784277875,40.0614254848494]]}},{"type":"Feature","id":8287,"properties":{"OBJECTID":8287,"PRIMENAME":"East Avenue","ELEVTYP_F":0,"ELEVTYP_T":0},"geometry":{"type":"LineString","coordinates":[[-74.0424981436129,40.0713861643756],[-74.0428089731605,40.070133575668]]}},{"type":"Feature","id":9794,"properties":{"OBJECTID":9794,"PRIMENAME":"Lister Street","ELEVTYP_F":0,"ELEVTYP_T":0},"geometry":{"type":"LineString","coordinates":[[-74.0515632099632,40.0813950512012],[-74.0521902190483,40.079829653325]]}},{"type":"Feature","id":10657,"properties":{"OBJECTID":10657,"PRIMENAME":"Osborne Avenue","ELEVTYP_F":0,"ELEVTYP_T":0},"geometry":{"type":"LineString","coordinates":[[-74.0507145995671,40.0784392836303],[-74.051298475204,40.0786365466877],[-74.054148502606,40.0796011090221],[-74.0547761761842,40.0798095872137]]}},{"type":"Feature","id":11408,"properties":{"OBJECTID":11408,"PRIMENAME":"Holly Avenue","ELEVTYP_F":0,"ELEVTYP_T":0},"geometry":{"type":"LineString","coordinates":[[-74.0506512306176,40.070137355097],[-74.0505152519074,40.0706773261804]]}},{"type":"Feature","id":13619,"properties":{"OBJECTID":13619,"PRIMENAME":"Bay Avenue","ELEVTYP_F":0,"ELEVTYP_T":0},"geometry":{"type":"LineString","coordinates":[[-74.0547046616293,40.0804147383257],[-74.0546949877773,40.0804500866616],[-74.0546607568276,40.0805586146622],[-74.0546153018019,40.0806785482045],[-74.0545735448706,40.0808013502415],[-74.054486553727,40.0810155076105],[-74.0544259717329,40.0811696983857],[-74.0543691995919,40.0813096007796],[-74.0542707790826,40.0815608576652],[-74.0541346519029,40.081883485231],[-74.0540847163748,40.0819886038103]]}},{"type":"Feature","id":18440,"properties":{"OBJECTID":18440,"PRIMENAME":"East Avenue","ELEVTYP_F":0,"ELEVTYP_T":0},"geometry":{"type":"LineString","coordinates":[[-74.0428089731605,40.070133575668],[-74.0428497714836,40.0699692095492],[-74.0431187717578,40.0688889709315]]}},{"type":"Feature","id":18569,"properties":{"OBJECTID":18569,"PRIMENAME":"Egbert Street","ELEVTYP_F":0,"ELEVTYP_T":0},"geometry":{"type":"LineString","coordinates":[[-74.045810212166,40.0617963025209],[-74.0456575962665,40.0617666035479],[-74.0449221504877,40.0616265060189]]}},{"type":"Feature","id":18660,"properties":{"OBJECTID":18660,"PRIMENAME":"Goetze Street","ELEVTYP_F":0,"ELEVTYP_T":0},"geometry":{"type":"LineString","coordinates":[[-74.0459705443171,40.0611371740936],[-74.0450818043152,40.06096872089]]}},{"type":"Feature","id":18702,"properties":{"OBJECTID":18702,"PRIMENAME":"Ocean Avenue","ELEVTYP_F":0,"ELEVTYP_T":0},"geometry":{"type":"LineString","coordinates":[[-74.0423910462636,40.0783327444271],[-74.0423483891643,40.0784214418853]]}},{"type":"Feature","id":19458,"properties":{"OBJECTID":19458,"PRIMENAME":"Maryland Avenue","ELEVTYP_F":0,"ELEVTYP_T":0},"geometry":{"type":"LineString","coordinates":[[-74.0459893661792,40.0784739012096],[-74.0458550277409,40.078428805649],[-74.0448719864772,40.0780988130305],[-74.042601880785,40.0773367242365],[-74.0425572487149,40.0773308385113],[-74.0425125402387,40.0773363714545],[-74.0424044651989,40.0773531028068]]}},{"type":"Feature","id":20737,"properties":{"OBJECTID":20737,"PRIMENAME":"Bay Avenue","ELEVTYP_F":0,"ELEVTYP_T":0},"geometry":{"type":"LineString","coordinates":[[-74.0551518374608,40.0756555781312],[-74.0552364047293,40.0764169060596]]}},{"type":"Feature","id":21517,"properties":{"OBJECTID":21517,"PRIMENAME":"East Avenue","ELEVTYP_F":0,"ELEVTYP_T":0},"geometry":{"type":"LineString","coordinates":[[-74.0421979459032,40.0726024455743],[-74.0423097459476,40.0721454618277],[-74.0424981436129,40.0713861643756]]}},{"type":"Feature","id":22850,"properties":{"OBJECTID":22850,"PRIMENAME":"Bay Point Place","ELEVTYP_F":0,"ELEVTYP_T":0},"geometry":{"type":"LineString","coordinates":[[-74.0544242874328,40.0641548507912],[-74.0542131648512,40.0641700989239],[-74.0540437394612,40.0641853144341],[-74.0539114673277,40.0642070145542],[-74.0537832198358,40.0642414145173],[-74.0536342331172,40.0642947859443],[-74.053439570921,40.0643829019921],[-74.053217444659,40.0645016867596]]}},{"type":"Feature","id":23370,"properties":{"OBJECTID":23370,"PRIMENAME":"Unnamed Segment","ELEVTYP_F":0,"ELEVTYP_T":0},"geometry":{"type":"LineString","coordinates":[[-74.0446516962482,40.0791345458817],[-74.0451259015883,40.0782973719407],[-74.0460329323542,40.0786152033319],[-74.0458575226679,40.0793594627263]]}},{"type":"Feature","id":35072,"properties":{"OBJECTID":35072,"PRIMENAME":"South Street","ELEVTYP_F":0,"ELEVTYP_T":0},"geometry":{"type":"LineString","coordinates":[[-74.0552463164403,40.0756554914431],[-74.0559434749586,40.075654854895],[-74.0560216268435,40.0756608369119],[-74.0560848769065,40.0756668167168],[-74.0561443010868,40.0756842026244],[-74.056200006824,40.0757072846545],[-74.0564299701561,40.0758339832956],[-74.0564633424078,40.0758570076045],[-74.0564967342637,40.0758714105391],[-74.0565106548505,40.0758739353348]]}},{"type":"Feature","id":45397,"properties":{"OBJECTID":45397,"PRIMENAME":"Bay Avenue","ELEVTYP_F":0,"ELEVTYP_T":0},"geometry":{"type":"LineString","coordinates":[[-74.0550625358724,40.0748314751219],[-74.0550871771132,40.0750591840796]]}},{"type":"Feature","id":47408,"properties":{"OBJECTID":47408,"PRIMENAME":"Lake Avenue","ELEVTYP_F":0,"ELEVTYP_T":0},"geometry":{"type":"LineString","coordinates":[[-74.0443556831285,40.0729293547478],[-74.0443279862474,40.0730422981976],[-74.0440492967821,40.0741557741466]]}},{"type":"Feature","id":48394,"properties":{"OBJECTID":48394,"PRIMENAME":"South Richmond Avenue","ELEVTYP_F":0,"ELEVTYP_T":0},"geometry":{"type":"LineString","coordinates":[[-74.0490634587594,40.0787669739665],[-74.0483695387552,40.0799726214572],[-74.0482662933305,40.0801544776918]]}},{"type":"Feature","id":48821,"properties":{"OBJECTID":48821,"PRIMENAME":"Ocean Avenue","ELEVTYP_F":0,"ELEVTYP_T":0},"geometry":{"type":"LineString","coordinates":[[-74.0411039740769,40.0803309928926],[-74.04106063316,40.0804519445375],[-74.0409811641799,40.08072651835],[-74.0408890828894,40.0810483716995]]}},{"type":"Feature","id":48941,"properties":{"OBJECTID":48941,"PRIMENAME":"Mount Place","ELEVTYP_F":0,"ELEVTYP_T":0},"geometry":{"type":"LineString","coordinates":[[-74.0544866844221,40.0701371788019],[-74.0546430515481,40.070132041695],[-74.054736135448,40.0701323994942],[-74.0548030965522,40.07013839516],[-74.0561531593678,40.0703065650683],[-74.0562134962242,40.070309238899]]}},{"type":"Feature","id":49282,"properties":{"OBJECTID":49282,"PRIMENAME":"Osborne Avenue","ELEVTYP_F":0,"ELEVTYP_T":0},"geometry":{"type":"LineString","coordinates":[[-74.0460331656257,40.0768575259132],[-74.0462874273943,40.0769434285669],[-74.0463151528186,40.0769527971783]]}},{"type":"Feature","id":52668,"properties":{"OBJECTID":52668,"PRIMENAME":"Maple Drive","ELEVTYP_F":0,"ELEVTYP_T":0},"geometry":{"type":"LineString","coordinates":[[-74.0505152519074,40.0706773261804],[-74.0506242773402,40.0706935347036],[-74.0513878969345,40.0707987023124]]}},{"type":"Feature","id":54452,"properties":{"OBJECTID":54452,"PRIMENAME":"Maryland Avenue","ELEVTYP_F":0,"ELEVTYP_T":0},"geometry":{"type":"LineString","coordinates":[[-74.0465949587865,40.0787085815671],[-74.0465693058077,40.0786753176446],[-74.0465523431665,40.078635554106],[-74.0465472079806,40.0786012067934],[-74.046453279914,40.0779728029348],[-74.0464664353087,40.0779397458609],[-74.0464967507033,40.0779166671906]]}},{"type":"Feature","id":54973,"properties":{"OBJECTID":54973,"PRIMENAME":"Bay Avenue","ELEVTYP_F":0,"ELEVTYP_T":0},"geometry":{"type":"LineString","coordinates":[[-74.0549737473869,40.0785511783173],[-74.0549138743134,40.0788494749414],[-74.0548633365137,40.0791135171027]]}},{"type":"Feature","id":55447,"properties":{"OBJECTID":55447,"PRIMENAME":"Bay Avenue","ELEVTYP_F":0,"ELEVTYP_T":0},"geometry":{"type":"LineString","coordinates":[[-74.0547367004655,40.071011371347],[-74.0547333530444,40.0711304230693],[-74.0547203426374,40.0714106430163],[-74.0547232584412,40.0715335899873],[-74.0547476462141,40.0717854800076]]}},{"type":"Feature","id":56464,"properties":{"OBJECTID":56464,"PRIMENAME":"East Street","ELEVTYP_F":0,"ELEVTYP_T":0},"geometry":{"type":"LineString","coordinates":[[-74.0439461114749,40.0788779388251],[-74.0439148983751,40.0789865196676],[-74.0439124232263,40.078995128653]]}},{"type":"Feature","id":56467,"properties":{"OBJECTID":56467,"PRIMENAME":"Clayton Avenue","ELEVTYP_F":0,"ELEVTYP_T":0},"geometry":{"type":"LineString","coordinates":[[-74.0476909697557,40.0584857371708],[-74.0476947497367,40.0585696256536],[-74.0476916766432,40.0586940313164],[-74.0476749421969,40.0588797426626],[-74.0476357810411,40.0594369188638],[-74.0475355127943,40.0607356433579]]}},{"type":"Feature","id":56664,"properties":{"OBJECTID":56664,"PRIMENAME":"Lake Avenue","ELEVTYP_F":0,"ELEVTYP_T":0},"geometry":{"type":"LineString","coordinates":[[-74.0437723848311,40.075269256197],[-74.0437494621052,40.0753625885483],[-74.0437110304708,40.0754987427242],[-74.043703960864,40.0755354199373],[-74.0437003205723,40.0755721106572],[-74.0436965401161,40.0756245314352],[-74.0436962077494,40.0756743294645],[-74.043695945366,40.0757136418966],[-74.043688892145,40.075747683743],[-74.0436818387364,40.0757817526088],[-74.0436610475831,40.0758288355198],[-74.0435521673545,40.0760203037951]]}},{"type":"Feature","id":57312,"properties":{"OBJECTID":57312,"PRIMENAME":"East Avenue","ELEVTYP_F":0,"ELEVTYP_T":0},"geometry":{"type":"LineString","coordinates":[[-74.0452455298408,40.0602943155918],[-74.045286600275,40.0601249532254],[-74.0457565259583,40.0582000439373],[-74.0457781303602,40.0581164692772]]}},{"type":"Feature","id":57985,"properties":{"OBJECTID":57985,"PRIMENAME":"Harris Street","ELEVTYP_F":0,"ELEVTYP_T":0},"geometry":{"type":"LineString","coordinates":[[-74.0433918875932,40.071515041808],[-74.0424981436129,40.0713861643756]]}},{"type":"Feature","id":60690,"properties":{"OBJECTID":60690,"PRIMENAME":"West Lake Avenue","ELEVTYP_F":0,"ELEVTYP_T":0},"geometry":{"type":"LineString","coordinates":[[-74.0484381123785,40.0724533776893],[-74.0483209798867,40.0729286027675]]}},{"type":"Feature","id":61878,"properties":{"OBJECTID":61878,"PRIMENAME":"Mount Street","ELEVTYP_F":0,"ELEVTYP_T":0},"geometry":{"type":"LineString","coordinates":[[-74.0458113183506,40.0680108969148],[-74.0455791316382,40.0679783603209]]}},{"type":"Feature","id":62410,"properties":{"OBJECTID":62410,"PRIMENAME":"Delaware Avenue","ELEVTYP_F":0,"ELEVTYP_T":0},"geometry":{"type":"LineString","coordinates":[[-74.0437334228916,40.0769581288297],[-74.0438194226377,40.076929129234],[-74.0438964228069,40.0769141305448],[-74.0439904245748,40.0769141295212],[-74.0441224226329,40.0769621299804],[-74.0442434234815,40.0770271290408]]}},{"type":"Feature","id":62817,"properties":{"OBJECTID":62817,"PRIMENAME":"Delaware Avenue","ELEVTYP_F":0,"ELEVTYP_T":0},"geometry":{"type":"LineString","coordinates":[[-74.0521902190483,40.079829653325],[-74.0515410501754,40.0796083403232]]}},{"type":"Feature","id":62898,"properties":{"OBJECTID":62898,"PRIMENAME":"Strickland Street","ELEVTYP_F":0,"ELEVTYP_T":0},"geometry":{"type":"LineString","coordinates":[[-74.0452455298408,40.0602943155918],[-74.046135559744,40.0604665609249]]}},{"type":"Feature","id":63730,"properties":{"OBJECTID":63730,"PRIMENAME":"Strickland Street","ELEVTYP_F":0,"ELEVTYP_T":0},"geometry":{"type":"LineString","coordinates":[[-74.0475355127943,40.0607356433579],[-74.0485575589007,40.060929917621],[-74.0487287079107,40.0609624483011]]}},{"type":"Feature","id":65783,"properties":{"OBJECTID":65783,"PRIMENAME":"Holly Avenue","ELEVTYP_F":0,"ELEVTYP_T":0},"geometry":{"type":"LineString","coordinates":[[-74.0505152519074,40.0706773261804],[-74.0503736585997,40.0712396223845]]}},{"type":"Feature","id":67093,"properties":{"OBJECTID":67093,"PRIMENAME":"Bridge Avenue","ELEVTYP_F":0,"ELEVTYP_T":0},"geometry":{"type":"LineString","coordinates":[[-74.0547544306263,40.0718555440663],[-74.0545170529077,40.0718273152513],[-74.0542567440354,40.0717919975266],[-74.0539889477446,40.0717595055922],[-74.0536355918089,40.0717181178098],[-74.053222761347,40.0716621965753],[-74.0523631041795,40.0715362719902]]}},{"type":"Feature","id":67380,"properties":{"OBJECTID":67380,"PRIMENAME":"Lagoon Lane North","ELEVTYP_F":0,"ELEVTYP_T":0},"geometry":{"type":"LineString","coordinates":[[-74.0491880545688,40.0579745310181],[-74.0493093409177,40.0571600699582],[-74.0493391508493,40.0569735580156],[-74.0493502310247,40.0569132319357],[-74.0493721001794,40.0568474562714],[-74.0493975418427,40.0567816944963],[-74.0494266102455,40.0567077108507],[-74.0494627511735,40.0566392462458],[-74.0495601865365,40.056485941055],[-74.0496094975172,40.0564195586738]]}},{"type":"Feature","id":68744,"properties":{"OBJECTID":68744,"PRIMENAME":"Ocean Avenue","ELEVTYP_F":0,"ELEVTYP_T":0},"geometry":{"type":"LineString","coordinates":[[-74.0423483891643,40.0784214418853],[-74.0423110863704,40.0784897075454],[-74.0422732233342,40.0785542529186],[-74.0420928096032,40.0788617966652]]}},{"type":"Feature","id":69212,"properties":{"OBJECTID":69212,"PRIMENAME":"Lake Avenue","ELEVTYP_F":0,"ELEVTYP_T":0},"geometry":{"type":"LineString","coordinates":[[-74.0467295011681,40.0633630363708],[-74.0462738751362,40.0651831044339],[-74.0459119023563,40.0666390413268]]}},{"type":"Feature","id":70256,"properties":{"OBJECTID":70256,"PRIMENAME":"Johnson Street","ELEVTYP_F":0,"ELEVTYP_T":0},"geometry":{"type":"LineString","coordinates":[[-74.0445948769767,40.0629514860559],[-74.0453417491897,40.0630944037361],[-74.0454837390877,40.063121480944]]}},{"type":"Feature","id":72122,"properties":{"OBJECTID":72122,"PRIMENAME":"Mathis Place","ELEVTYP_F":0,"ELEVTYP_T":0},"geometry":{"type":"LineString","coordinates":[[-74.0468183925566,40.0575878756853],[-74.0459356251703,40.0574950045678]]}},{"type":"Feature","id":73036,"properties":{"OBJECTID":73036,"PRIMENAME":"North Street","ELEVTYP_F":0,"ELEVTYP_T":0},"geometry":{"type":"LineString","coordinates":[[-74.0440492967821,40.0741557741466],[-74.042786379531,40.0739666408797]]}},{"type":"Feature","id":74134,"properties":{"OBJECTID":74134,"PRIMENAME":"East Avenue","ELEVTYP_F":0,"ELEVTYP_T":0},"geometry":{"type":"LineString","coordinates":[[-74.0458484639898,40.0578443897808],[-74.0458536611107,40.0578242867979],[-74.0459356251703,40.0574950045678]]}},{"type":"Feature","id":74338,"properties":{"OBJECTID":74338,"PRIMENAME":"Madison Street","ELEVTYP_F":0,"ELEVTYP_T":0},"geometry":{"type":"LineString","coordinates":[[-74.0515410501754,40.0796083403232],[-74.050667760569,40.0811284971548]]}},{"type":"Feature","id":77422,"properties":{"OBJECTID":77422,"PRIMENAME":"Burnt Tavern Road","ELEVTYP_F":0,"ELEVTYP_T":0},"geometry":{"type":"LineString","coordinates":[[-74.0553564415218,40.0769582612154],[-74.0552677679406,40.0769352873058]]}},{"type":"Feature","id":77879,"properties":{"OBJECTID":77879,"PRIMENAME":"Club Drive","ELEVTYP_F":0,"ELEVTYP_T":0},"geometry":{"type":"LineString","coordinates":[[-74.0472203557074,40.0707790305006],[-74.047488967609,40.0696719035379]]}},{"type":"Feature","id":79751,"properties":{"OBJECTID":79751,"PRIMENAME":"Bay Avenue","ELEVTYP_F":0,"ELEVTYP_T":0},"geometry":{"type":"LineString","coordinates":[[-74.0512071907585,40.0660890048689],[-74.0525700164883,40.0672529130912],[-74.0527291766718,40.0673879383677],[-74.0528512555216,40.067499924645],[-74.052984312525,40.0676434423446],[-74.053106054903,40.0678126121663],[-74.0533323190073,40.0681236498124],[-74.0533747303349,40.0681819486661]]}},{"type":"Feature","id":79769,"properties":{"OBJECTID":79769,"PRIMENAME":"Howe Street","ELEVTYP_F":0,"ELEVTYP_T":0},"geometry":{"type":"LineString","coordinates":[[-74.0440122448597,40.0690214110642],[-74.0452753730592,40.0692086376503]]}},{"type":"Feature","id":80076,"properties":{"OBJECTID":80076,"PRIMENAME":"Bridge Avenue","ELEVTYP_F":0,"ELEVTYP_T":0},"geometry":{"type":"LineString","coordinates":[[-74.0583412225781,40.0724475392396],[-74.0582818023342,40.072459291025],[-74.0581011941594,40.0724822391652],[-74.0578786684699,40.0724996742332],[-74.0577401712565,40.0725034283961],[-74.0575891176499,40.0725039225675],[-74.0574562585648,40.0724980613949],[-74.0573080752292,40.0724856628194],[-74.0571627006394,40.0724700629154],[-74.0570565181195,40.0724503028632],[-74.0569196234103,40.0724218866738],[-74.0567757476271,40.0723901497755],[-74.0566430970074,40.0723520030849],[-74.0564811868538,40.0723019676516],[-74.0562216105561,40.072224873941],[-74.0561227556958,40.0721994027799],[-74.0557449617099,40.0720850391127],[-74.0555316061742,40.0720277769425],[-74.0553182146559,40.0719705142412],[-74.0551114059066,40.0719286503762],[-74.0549112907455,40.0718851374682],[-74.0548463616982,40.0718728871452]]}},{"type":"Feature","id":81081,"properties":{"OBJECTID":81081,"PRIMENAME":"West Lake Avenue","ELEVTYP_F":0,"ELEVTYP_T":0},"geometry":{"type":"LineString","coordinates":[[-74.0493180591185,40.0688943376262],[-74.0490709092335,40.0699054944131]]}},{"type":"Feature","id":83212,"properties":{"OBJECTID":83212,"PRIMENAME":"Meadow Avenue","ELEVTYP_F":0,"ELEVTYP_T":0},"geometry":{"type":"LineString","coordinates":[[-74.0543916831561,40.0697731400013],[-74.0529985039604,40.0693645670793],[-74.0526344428132,40.0692573301949],[-74.0524299946318,40.0692165136591]]}},{"type":"Feature","id":83236,"properties":{"OBJECTID":83236,"PRIMENAME":"West Lake Avenue","ELEVTYP_F":0,"ELEVTYP_T":0},"geometry":{"type":"LineString","coordinates":[[-74.0496376533686,40.0675867476924],[-74.0494301368292,40.0684357886058],[-74.0493906950587,40.068597157672],[-74.0493180591185,40.0688943376262]]}},{"type":"Feature","id":85946,"properties":{"OBJECTID":85946,"PRIMENAME":"Delaware Avenue","ELEVTYP_F":0,"ELEVTYP_T":0},"geometry":{"type":"LineString","coordinates":[[-74.0515410501754,40.0796083403232],[-74.0507180876102,40.0793277371867]]}},{"type":"Feature","id":86180,"properties":{"OBJECTID":86180,"PRIMENAME":"East Avenue","ELEVTYP_F":0,"ELEVTYP_T":0},"geometry":{"type":"LineString","coordinates":[[-74.0434232091342,40.0676695453888],[-74.0437963299492,40.0661797565689],[-74.0438247204076,40.0660642893915]]}},{"type":"Feature","id":88264,"properties":{"OBJECTID":88264,"PRIMENAME":"Woodland Avenue","ELEVTYP_F":0,"ELEVTYP_T":0},"geometry":{"type":"LineString","coordinates":[[-74.0499039123905,40.0731592489643],[-74.0492590716192,40.0730673263358],[-74.0483209798867,40.0729286027675]]}},{"type":"Feature","id":88633,"properties":{"OBJECTID":88633,"PRIMENAME":"Bay Avenue","ELEVTYP_F":0,"ELEVTYP_T":0},"geometry":{"type":"LineString","coordinates":[[-74.0547476462141,40.0717854800076],[-74.0547544306263,40.0718555440663]]}},{"type":"Feature","id":88783,"properties":{"OBJECTID":88783,"PRIMENAME":"Karge Street","ELEVTYP_F":0,"ELEVTYP_T":0},"geometry":{"type":"LineString","coordinates":[[-74.0443556831285,40.0729293547478],[-74.0432055332827,40.0727506618148],[-74.0430894378238,40.0727335951943]]}},{"type":"Feature","id":90175,"properties":{"OBJECTID":90175,"PRIMENAME":"Bridge Avenue","ELEVTYP_F":0,"ELEVTYP_T":0},"geometry":{"type":"LineString","coordinates":[[-74.0428089731605,40.070133575668],[-74.0422898773698,40.0700581157669]]}},{"type":"Feature","id":90271,"properties":{"OBJECTID":90271,"PRIMENAME":"Bay Avenue","ELEVTYP_F":0,"ELEVTYP_T":0},"geometry":{"type":"LineString","coordinates":[[-74.0537411011406,40.0686854834046],[-74.0538217146016,40.0687962749115],[-74.0542314721118,40.0693154553823]]}},{"type":"Feature","id":90987,"properties":{"OBJECTID":90987,"PRIMENAME":"Goetze Street","ELEVTYP_F":0,"ELEVTYP_T":0},"geometry":{"type":"LineString","coordinates":[[-74.0474784277875,40.0614254848494],[-74.046670699912,40.0612698798964],[-74.0459705443171,40.0611371740936]]}},{"type":"Feature","id":91778,"properties":{"OBJECTID":91778,"PRIMENAME":"Chadwick Street","ELEVTYP_F":0,"ELEVTYP_T":0},"geometry":{"type":"LineString","coordinates":[[-74.0447206300903,40.0661957185774],[-74.0438247204076,40.0660642893915]]}},{"type":"Feature","id":92026,"properties":{"OBJECTID":92026,"PRIMENAME":"Egbert Street","ELEVTYP_F":0,"ELEVTYP_T":0},"geometry":{"type":"LineString","coordinates":[[-74.0484481692267,40.0623096399332],[-74.0482804815209,40.0622770151537],[-74.0474214853646,40.0621098919888]]}},{"type":"Feature","id":92163,"properties":{"OBJECTID":92163,"PRIMENAME":"Hance Place","ELEVTYP_F":0,"ELEVTYP_T":0},"geometry":{"type":"LineString","coordinates":[[-74.0551585616003,40.0748255804657],[-74.0550625358724,40.0748314751219]]}},{"type":"Feature","id":92506,"properties":{"OBJECTID":92506,"PRIMENAME":"Egbert Street","ELEVTYP_F":0,"ELEVTYP_T":0},"geometry":{"type":"LineString","coordinates":[[-74.0449221504877,40.0616265060189],[-74.044294688064,40.061506978973]]}},{"type":"Feature","id":92593,"properties":{"OBJECTID":92593,"PRIMENAME":"Beacon Lane","ELEVTYP_F":0,"ELEVTYP_T":0},"geometry":{"type":"LineString","coordinates":[[-74.0420336390491,40.0769462093287],[-74.0420272965155,40.0769741318633],[-74.0420001912062,40.077131303743],[-74.0419999676401,40.077132647594]]}},{"type":"Feature","id":93634,"properties":{"OBJECTID":93634,"PRIMENAME":"Cedar Drive","ELEVTYP_F":0,"ELEVTYP_T":0},"geometry":{"type":"LineString","coordinates":[[-74.0549737473869,40.0785511783173],[-74.0541946227821,40.0784530919486],[-74.0540753556894,40.0784380759085]]}},{"type":"Feature","id":93897,"properties":{"OBJECTID":93897,"PRIMENAME":"East Avenue","ELEVTYP_F":0,"ELEVTYP_T":0},"geometry":{"type":"LineString","coordinates":[[-74.0450818043152,40.06096872089],[-74.0452455298408,40.0602943155918]]}},{"type":"Feature","id":94175,"properties":{"OBJECTID":94175,"PRIMENAME":"Howe Street","ELEVTYP_F":0,"ELEVTYP_T":0},"geometry":{"type":"LineString","coordinates":[[-74.0526573053277,40.0707222395221],[-74.0537518060892,40.0708573576606],[-74.0541014235345,40.070901640842],[-74.0547367004655,40.071011371347]]}},{"type":"Feature","id":94193,"properties":{"OBJECTID":94193,"PRIMENAME":"Meadow Avenue","ELEVTYP_F":0,"ELEVTYP_T":0},"geometry":{"type":"LineString","coordinates":[[-74.0493180591185,40.0688943376262],[-74.0495270013008,40.0689250470144],[-74.0498424870929,40.0689717250612]]}},{"type":"Feature","id":95182,"properties":{"OBJECTID":95182,"PRIMENAME":"Canal Street","ELEVTYP_F":0,"ELEVTYP_T":0},"geometry":{"type":"LineString","coordinates":[[-74.0542314721118,40.0693154553823],[-74.0553516130775,40.0693569316801],[-74.0555436093114,40.0693667735442],[-74.0563807048916,40.0694096882141]]}},{"type":"Feature","id":96288,"properties":{"OBJECTID":96288,"PRIMENAME":"Park Avenue","ELEVTYP_F":0,"ELEVTYP_T":0},"geometry":{"type":"LineString","coordinates":[[-74.0531784436658,40.0726601334811],[-74.0524873465785,40.0725581211472],[-74.0520965464984,40.0725008741156],[-74.0517233559616,40.0724462059432]]}},{"type":"Feature","id":97933,"properties":{"OBJECTID":97933,"PRIMENAME":"East Street","ELEVTYP_F":0,"ELEVTYP_T":0},"geometry":{"type":"LineString","coordinates":[[-74.0457579375071,40.0799622185323],[-74.0457511767139,40.0799683968945],[-74.0456914485385,40.0799967686743],[-74.0456391545455,40.0800194321687],[-74.0455979873908,40.0800564422865],[-74.04556419948,40.080096363554],[-74.0453240686044,40.0805470754752],[-74.0452890070607,40.0806128856732],[-74.0452850049672,40.0806557519419],[-74.0453033579245,40.0806958777834],[-74.0453291655819,40.0807274132521],[-74.0453662722814,40.0807475992971],[-74.0454145827127,40.0807649479801],[-74.0455668423492,40.0808170199542]]}},{"type":"Feature","id":98857,"properties":{"OBJECTID":98857,"PRIMENAME":"Harris Street","ELEVTYP_F":0,"ELEVTYP_T":0},"geometry":{"type":"LineString","coordinates":[[-74.0446573724408,40.0716983312676],[-74.0435171576563,40.0715331053173],[-74.0433918875932,40.071515041808]]}},{"type":"Feature","id":99262,"properties":{"OBJECTID":99262,"PRIMENAME":"Howe Street","ELEVTYP_F":0,"ELEVTYP_T":0},"geometry":{"type":"LineString","coordinates":[[-74.0523603404585,40.0706865841409],[-74.0526573053277,40.0707222395221]]}},{"type":"Feature","id":100351,"properties":{"OBJECTID":100351,"PRIMENAME":"Beacon Avenue","ELEVTYP_F":0,"ELEVTYP_T":0},"geometry":{"type":"LineString","coordinates":[[-74.0421116569243,40.0766026943102],[-74.0420336390491,40.0769462093287]]}},{"type":"Feature","id":103695,"properties":{"OBJECTID":103695,"PRIMENAME":"Bay Point Harbour","ELEVTYP_F":0,"ELEVTYP_T":0},"geometry":{"type":"LineString","coordinates":[[-74.0533747303349,40.0681819486661],[-74.0523911327835,40.0680272456799],[-74.052145063125,40.0679581094005],[-74.0518570915192,40.0677625412154],[-74.0516929463074,40.0677316013702],[-74.0506094242867,40.0675531523376],[-74.0505209280138,40.0675149285054],[-74.0504620629656,40.0674692429415],[-74.0504394221842,40.0674135966275],[-74.0504532819338,40.0673050590365],[-74.050474596688,40.0670627062096],[-74.050596423119,40.0667081276171]]}},{"type":"Feature","id":104754,"properties":{"OBJECTID":104754,"PRIMENAME":"Carter Avenue","ELEVTYP_F":0,"ELEVTYP_T":0},"geometry":{"type":"LineString","coordinates":[[-74.0411039740769,40.0803309928926],[-74.0406423347274,40.0802039786923],[-74.0405892493586,40.0801893724086]]}},{"type":"Feature","id":107649,"properties":{"OBJECTID":107649,"PRIMENAME":"FR CO 635 to RT 35 NB","ELEVTYP_F":0,"ELEVTYP_T":0},"geometry":{"type":"LineString","coordinates":[[-74.042921100033,40.0785905356516],[-74.0429872516772,40.0786023252823],[-74.0430539573986,40.0786121006045],[-74.0431211132971,40.0786198463924],[-74.0431886147717,40.0786255505811],[-74.0432239958586,40.0786290525768],[-74.0432591494904,40.0786337142668],[-74.0433026731824,40.0786411594935],[-74.0433456163371,40.0786503819189],[-74.0433878560733,40.0786613551533],[-74.0434292715221,40.0786740477968],[-74.0434999780325,40.0786929924093],[-74.0435694055584,40.0787145484612],[-74.0436373907648,40.0787386652404],[-74.0437037737093,40.07876528601]]}},{"type":"Feature","id":108192,"properties":{"OBJECTID":108192,"PRIMENAME":"Forsyth Street","ELEVTYP_F":0,"ELEVTYP_T":0},"geometry":{"type":"LineString","coordinates":[[-74.0459119023563,40.0666390413268],[-74.0463072436249,40.0666973916223]]}},{"type":"Feature","id":110479,"properties":{"OBJECTID":110479,"PRIMENAME":"South Richmond Avenue","ELEVTYP_F":0,"ELEVTYP_T":0},"geometry":{"type":"LineString","coordinates":[[-74.0482662933305,40.0801544776918],[-74.0481977087056,40.0802752822512]]}},{"type":"Feature","id":110843,"properties":{"OBJECTID":110843,"PRIMENAME":"Howe Street","ELEVTYP_F":0,"ELEVTYP_T":0},"geometry":{"type":"LineString","coordinates":[[-74.0547367004655,40.071011371347],[-74.0557483272125,40.0712425957272]]}},{"type":"Feature","id":113239,"properties":{"OBJECTID":113239,"PRIMENAME":"Ocean Front","ELEVTYP_F":0,"ELEVTYP_T":0},"geometry":{"type":"LineString","coordinates":[[-74.0405892493586,40.0801893724086],[-74.0405749861946,40.0802369039383],[-74.0405339208126,40.0803530673223],[-74.0404974895958,40.0805282930729],[-74.0403823175979,40.08090615767]]}},{"type":"Feature","id":117305,"properties":{"OBJECTID":117305,"PRIMENAME":"Holly Avenue","ELEVTYP_F":0,"ELEVTYP_T":0},"geometry":{"type":"LineString","coordinates":[[-74.0499039123905,40.0731592489643],[-74.0498558326684,40.0733571643757],[-74.0497891820993,40.0736290761505]]}},{"type":"Feature","id":117851,"properties":{"OBJECTID":117851,"PRIMENAME":"Delaware Avenue","ELEVTYP_F":0,"ELEVTYP_T":0},"geometry":{"type":"LineString","coordinates":[[-74.0482188949734,40.0784809702029],[-74.0480873525212,40.0784364222437],[-74.048072427972,40.0784314291245]]}},{"type":"Feature","id":121036,"properties":{"OBJECTID":121036,"PRIMENAME":"Lagoon Lane","ELEVTYP_F":0,"ELEVTYP_T":0},"geometry":{"type":"LineString","coordinates":[[-74.0491598542665,40.0581638935506],[-74.0491880545688,40.0579745310181]]}},{"type":"Feature","id":127406,"properties":{"OBJECTID":127406,"PRIMENAME":"South Street","ELEVTYP_F":0,"ELEVTYP_T":0},"geometry":{"type":"LineString","coordinates":[[-74.0551518374608,40.0756555781312],[-74.0552463164403,40.0756554914431]]}},{"type":"Feature","id":127755,"properties":{"OBJECTID":127755,"PRIMENAME":"Karge Street","ELEVTYP_F":0,"ELEVTYP_T":0},"geometry":{"type":"LineString","coordinates":[[-74.0430894378238,40.0727335951943],[-74.0421979459032,40.0726024455743]]}},{"type":"Feature","id":129563,"properties":{"OBJECTID":129563,"PRIMENAME":"Cranberry Avenue","ELEVTYP_F":0,"ELEVTYP_T":0},"geometry":{"type":"LineString","coordinates":[[-74.0497891820993,40.0736290761505],[-74.0501223853102,40.0736769589609],[-74.0513719076174,40.0738619793446]]}},{"type":"Feature","id":130936,"properties":{"OBJECTID":130936,"PRIMENAME":"Bay Avenue","ELEVTYP_F":0,"ELEVTYP_T":0},"geometry":{"type":"LineString","coordinates":[[-74.0547544306263,40.0718555440663],[-74.0547929987332,40.0722545322917],[-74.0548239324735,40.07255828417]]}},{"type":"Feature","id":131319,"properties":{"OBJECTID":131319,"PRIMENAME":"Mount Street","ELEVTYP_F":0,"ELEVTYP_T":0},"geometry":{"type":"LineString","coordinates":[[-74.0455791316382,40.0679783603209],[-74.0443170633823,40.0678016009792]]}},{"type":"Feature","id":134549,"properties":{"OBJECTID":134549,"PRIMENAME":"Meadow Avenue","ELEVTYP_F":0,"ELEVTYP_T":0},"geometry":{"type":"LineString","coordinates":[[-74.0498424870929,40.0689717250612],[-74.050873464417,40.0691242591331]]}},{"type":"Feature","id":137838,"properties":{"OBJECTID":137838,"PRIMENAME":"Osborne Avenue","ELEVTYP_F":0,"ELEVTYP_T":0},"geometry":{"type":"LineString","coordinates":[[-74.0467251191276,40.07709132989],[-74.0472280383119,40.0772612650763],[-74.0493491617991,40.0779779554161],[-74.049617174531,40.0780685085936],[-74.0507145995671,40.0784392836303]]}},{"type":"Feature","id":140292,"properties":{"OBJECTID":140292,"PRIMENAME":"Partridge Run","ELEVTYP_F":0,"ELEVTYP_T":0},"geometry":{"type":"LineString","coordinates":[[-74.0549193278849,40.072563001963],[-74.0549611819115,40.0725650704249],[-74.0551375635524,40.0725657478687],[-74.0552771412972,40.0725606562295],[-74.0554756454464,40.0725444787261],[-74.0556962349684,40.0725227310285],[-74.0558947021769,40.0725122090242],[-74.0560269534436,40.0725127159321],[-74.0561230105464,40.0725289245244]]}},{"type":"Feature","id":140314,"properties":{"OBJECTID":140314,"PRIMENAME":"Park Avenue","ELEVTYP_F":0,"ELEVTYP_T":0},"geometry":{"type":"LineString","coordinates":[[-74.0501336228934,40.0722133073546],[-74.0485550230513,40.0719790027426]]}},{"type":"Feature","id":144025,"properties":{"OBJECTID":144025,"PRIMENAME":"Hance Place","ELEVTYP_F":0,"ELEVTYP_T":0},"geometry":{"type":"LineString","coordinates":[[-74.0563821099865,40.0747504699275],[-74.0551585616003,40.0748255804657]]}},{"type":"Feature","id":145976,"properties":{"OBJECTID":145976,"PRIMENAME":"Howe Street","ELEVTYP_F":0,"ELEVTYP_T":0},"geometry":{"type":"LineString","coordinates":[[-74.0452753730592,40.0692086376503],[-74.0454816703159,40.0692392340655],[-74.0456992774492,40.0692682243926],[-74.0458761713858,40.0692917892671]]}},{"type":"Feature","id":150764,"properties":{"OBJECTID":150764,"PRIMENAME":"Western Avenue","ELEVTYP_F":0,"ELEVTYP_T":0},"geometry":{"type":"LineString","coordinates":[[-74.0514867107056,40.0733848210274],[-74.0516041060696,40.0729191987693],[-74.0516269404627,40.0728286331971],[-74.0517233559616,40.0724462059432]]}},{"type":"Feature","id":152045,"properties":{"OBJECTID":152045,"PRIMENAME":"Park Avenue","ELEVTYP_F":0,"ELEVTYP_T":0},"geometry":{"type":"LineString","coordinates":[[-74.0517233559616,40.0724462059432],[-74.050137086313,40.0722138152847],[-74.0501336228934,40.0722133073546]]}},{"type":"Feature","id":152777,"properties":{"OBJECTID":152777,"PRIMENAME":"Delaware Avenue","ELEVTYP_F":0,"ELEVTYP_T":0},"geometry":{"type":"LineString","coordinates":[[-74.0507180876102,40.0793277371867],[-74.0505125179303,40.0792576476243],[-74.0498956206583,40.0790487495726]]}},{"type":"Feature","id":157272,"properties":{"OBJECTID":157272,"PRIMENAME":"Marine Parkway","ELEVTYP_F":0,"ELEVTYP_T":0},"geometry":{"type":"LineString","coordinates":[[-74.055155035598,40.0669908614833],[-74.0557308063674,40.0664865857224]]}},{"type":"Feature","id":160004,"properties":{"OBJECTID":160004,"PRIMENAME":"Bay Avenue","ELEVTYP_F":0,"ELEVTYP_T":0},"geometry":{"type":"LineString","coordinates":[[-74.0547761761842,40.0798095872137],[-74.054769326559,40.0798955986857],[-74.0547533253531,40.0800642369798],[-74.0547414865825,40.0801642863852],[-74.0547254842136,40.0803386620769],[-74.0547046616293,40.0804147383257]]}},{"type":"Feature","id":161454,"properties":{"OBJECTID":161454,"PRIMENAME":"Burnt Tavern Road","ELEVTYP_F":0,"ELEVTYP_T":0},"geometry":{"type":"LineString","coordinates":[[-74.0566624416191,40.0772990622209],[-74.0565451678387,40.0772690733161],[-74.0558056347229,40.0770746445314],[-74.0553564415218,40.0769582612154]]}},{"type":"Feature","id":161986,"properties":{"OBJECTID":161986,"PRIMENAME":"Mount Street","ELEVTYP_F":0,"ELEVTYP_T":0},"geometry":{"type":"LineString","coordinates":[[-74.0434232091342,40.0676695453888],[-74.0427985291866,40.0675748389823]]}},{"type":"Feature","id":162248,"properties":{"OBJECTID":162248,"PRIMENAME":"East Avenue","ELEVTYP_F":0,"ELEVTYP_T":0},"geometry":{"type":"LineString","coordinates":[[-74.0415514026931,40.0753248382869],[-74.0415447538912,40.0753038375274],[-74.0415449120201,40.0752802561982],[-74.0415450526641,40.0752592823071],[-74.0417940473794,40.0742536415483],[-74.0418968520485,40.073833437712]]}},{"type":"Feature","id":162970,"properties":{"OBJECTID":162970,"PRIMENAME":"Charleston Street","ELEVTYP_F":0,"ELEVTYP_T":0},"geometry":{"type":"LineString","coordinates":[[-74.0478472066974,40.0791370782005],[-74.0479110767555,40.0790243337407],[-74.0481013474262,40.0786884673349]]}},{"type":"Feature","id":163813,"properties":{"OBJECTID":163813,"PRIMENAME":"Unnamed Segment","ELEVTYP_F":0,"ELEVTYP_T":0},"geometry":{"type":"LineString","coordinates":[[-74.0437133084838,40.0797214063245],[-74.0432292473579,40.0796607383932],[-74.0430826160929,40.0800097487125],[-74.0430976721122,40.0802485511076],[-74.0432911153105,40.0803686854148],[-74.0437335943063,40.0805963821939],[-74.0441101021459,40.0807300258493],[-74.0443481775727,40.0808162274966],[-74.0445059330144,40.0808409035957],[-74.0445602899581,40.0808888909512],[-74.0446082392103,40.0809312210608]]}},{"type":"Feature","id":163960,"properties":{"OBJECTID":163960,"PRIMENAME":"Bay Avenue","ELEVTYP_F":0,"ELEVTYP_T":0},"geometry":{"type":"LineString","coordinates":[[-74.0543916831561,40.0697731400013],[-74.0544866844221,40.0701371788019]]}},{"type":"Feature","id":167085,"properties":{"OBJECTID":167085,"PRIMENAME":"Bay Avenue","ELEVTYP_F":0,"ELEVTYP_T":0},"geometry":{"type":"LineString","coordinates":[[-74.0533747303349,40.0681819486661],[-74.0534085634526,40.068228459469],[-74.0537411011406,40.0686854834046]]}},{"type":"Feature","id":167637,"properties":{"OBJECTID":167637,"PRIMENAME":"Barnegat Lane","ELEVTYP_F":0,"ELEVTYP_T":0},"geometry":{"type":"LineString","coordinates":[[-74.0479140231968,40.0561400974339],[-74.0478944264279,40.0562834370697],[-74.0478080080603,40.0569694314095],[-74.0477487841769,40.0574810948057],[-74.0477044944975,40.0579928155262],[-74.047689265356,40.0581485603062],[-74.0476837252279,40.0582051951706],[-74.0476835507881,40.0582390237379]]}},{"type":"Feature","id":168347,"properties":{"OBJECTID":168347,"PRIMENAME":"Club Drive","ELEVTYP_F":0,"ELEVTYP_T":0},"geometry":{"type":"LineString","coordinates":[[-74.047488967609,40.0696719035379],[-74.0477340967063,40.0686616213112]]}},{"type":"Feature","id":168641,"properties":{"OBJECTID":168641,"PRIMENAME":"Wilmington Street","ELEVTYP_F":0,"ELEVTYP_T":0},"geometry":{"type":"LineString","coordinates":[[-74.0490371243358,40.08057024238],[-74.0498956206583,40.0790487495726]]}},{"type":"Feature","id":169674,"properties":{"OBJECTID":169674,"PRIMENAME":"Delaware Avenue","ELEVTYP_F":0,"ELEVTYP_T":0},"geometry":{"type":"LineString","coordinates":[[-74.0442434234815,40.0770271290408],[-74.0445124245465,40.0771731301768],[-74.0445774234541,40.0772211278676],[-74.0446104245515,40.0772791289379],[-74.0446164229499,40.0773701288323],[-74.0445994232835,40.0774301301333],[-74.0445376291633,40.077504173666],[-74.0444547962445,40.0775250232627],[-74.0443598197566,40.0775293540625],[-74.0442742234724,40.0775054903604],[-74.0439568301671,40.0773348380611],[-74.0437800415514,40.0772070901943],[-74.0437314014926,40.0771527849854],[-74.0437224229072,40.0770821298725],[-74.0437154212596,40.0770311302662],[-74.0437334228916,40.0769581288297]]}},{"type":"Feature","id":170188,"properties":{"OBJECTID":170188,"PRIMENAME":"Old Farm Road","ELEVTYP_F":0,"ELEVTYP_T":0},"geometry":{"type":"LineString","coordinates":[[-74.0561949305084,40.0794564374087],[-74.0559716518353,40.0793936204218],[-74.0555665412988,40.0792862625161],[-74.0552023486941,40.0791905081194],[-74.0549506028596,40.079133335287]]}},{"type":"Feature","id":170284,"properties":{"OBJECTID":170284,"PRIMENAME":"Grove Street","ELEVTYP_F":0,"ELEVTYP_T":0},"geometry":{"type":"LineString","coordinates":[[-74.0490709092335,40.0699054944131],[-74.0492951329437,40.0699386244188],[-74.0506512306176,40.070137355097]]}},{"type":"Feature","id":174688,"properties":{"OBJECTID":174688,"PRIMENAME":"West Lake Avenue","ELEVTYP_F":0,"ELEVTYP_T":0},"geometry":{"type":"LineString","coordinates":[[-74.0486716405881,40.0715111331092],[-74.0485550230513,40.0719790027426]]}},{"type":"Feature","id":176534,"properties":{"OBJECTID":176534,"PRIMENAME":"Meadow Avenue","ELEVTYP_F":0,"ELEVTYP_T":0},"geometry":{"type":"LineString","coordinates":[[-74.0477340967063,40.0686616213112],[-74.0493180591185,40.0688943376262]]}},{"type":"Feature","id":178894,"properties":{"OBJECTID":178894,"PRIMENAME":"Bay Avenue","ELEVTYP_F":0,"ELEVTYP_T":0},"geometry":{"type":"LineString","coordinates":[[-74.0548239324735,40.07255828417],[-74.054859497861,40.0729082567255]]}},{"type":"Feature","id":179334,"properties":{"OBJECTID":179334,"PRIMENAME":"Wyndham Drive","ELEVTYP_F":0,"ELEVTYP_T":0},"geometry":{"type":"LineString","coordinates":[[-74.0467251191276,40.07709132989],[-74.0469040345693,40.0767493043009],[-74.0469319396672,40.0767069709697],[-74.0469597603229,40.0766773749061],[-74.0470014026841,40.0766436059304],[-74.0470485204155,40.0766140853018],[-74.0470928663585,40.0765930653694],[-74.0471399151752,40.0765741140701],[-74.0471952608797,40.0765595059002],[-74.0472671239705,40.0765491901103],[-74.0474275424232,40.0765441524631],[-74.0475073968933,40.0765416452305],[-74.0478223939195,40.0765428751749],[-74.0478304848959,40.0765429067559],[-74.0480065859511,40.0765471273984],[-74.0481479570621,40.0765505151794]]}},{"type":"Feature","id":180346,"properties":{"OBJECTID":180346,"PRIMENAME":"Bay Boulevard","ELEVTYP_F":0,"ELEVTYP_T":0},"geometry":{"type":"LineString","coordinates":[[-74.0544242874328,40.0641548507912],[-74.0544184872294,40.0642170926569],[-74.0544215685364,40.0643143435832],[-74.0544394582194,40.0644259274816],[-74.0544685119504,40.0645347261248],[-74.0545089749079,40.0646092251174],[-74.0545754464301,40.064689562423],[-74.0546715881987,40.0647842888621],[-74.0561091826943,40.0657906962886],[-74.0563555626128,40.0659650346597]]}},{"type":"Feature","id":181739,"properties":{"OBJECTID":181739,"PRIMENAME":"Perch Hole Point Place","ELEVTYP_F":0,"ELEVTYP_T":0},"geometry":{"type":"LineString","coordinates":[[-74.052684145999,40.0645539039116],[-74.052694379587,40.0646718822687],[-74.0527063217241,40.064741742169],[-74.0527306667519,40.0648052811345],[-74.0530765135558,40.0655966651249]]}},{"type":"Feature","id":182189,"properties":{"OBJECTID":182189,"PRIMENAME":"Howe Street","ELEVTYP_F":0,"ELEVTYP_T":0},"geometry":{"type":"LineString","coordinates":[[-74.0425421872487,40.0688034570505],[-74.0431187717578,40.0688889709315]]}},{"type":"Feature","id":185186,"properties":{"OBJECTID":185186,"PRIMENAME":"Bristol Place","ELEVTYP_F":0,"ELEVTYP_T":0},"geometry":{"type":"LineString","coordinates":[[-74.0456460705335,40.0624743312129],[-74.0473633384477,40.0628087351624]]}},{"type":"Feature","id":187705,"properties":{"OBJECTID":187705,"PRIMENAME":"Ocean Front","ELEVTYP_F":0,"ELEVTYP_T":0},"geometry":{"type":"LineString","coordinates":[[-74.0406982774005,40.0798256276737],[-74.0406686832098,40.0798983529542],[-74.0406025986497,40.0801448743883],[-74.0405892493586,40.0801893724086]]}},{"type":"Feature","id":191361,"properties":{"OBJECTID":191361,"PRIMENAME":"Unnamed Segment","ELEVTYP_F":0,"ELEVTYP_T":0},"geometry":{"type":"LineString","coordinates":[[-74.0439124232263,40.078995128653],[-74.0437133084838,40.0797214063245]]}},{"type":"Feature","id":191474,"properties":{"OBJECTID":191474,"PRIMENAME":"East Avenue","ELEVTYP_F":0,"ELEVTYP_T":0},"geometry":{"type":"LineString","coordinates":[[-74.0431187717578,40.0688889709315],[-74.043277539882,40.0682512549506],[-74.0434232091342,40.0676695453888]]}},{"type":"Feature","id":193500,"properties":{"OBJECTID":193500,"PRIMENAME":"Park Avenue","ELEVTYP_F":0,"ELEVTYP_T":0},"geometry":{"type":"LineString","coordinates":[[-74.0485550230513,40.0719790027426],[-74.0479539706693,40.0718897816352],[-74.0477557858416,40.0718603624702],[-74.0477148919517,40.0718516651451],[-74.0476666223694,40.0718343184644],[-74.0476183544327,40.0718112334479],[-74.0475701417572,40.0717852943276],[-74.0475294183393,40.071750845858],[-74.0473463035748,40.0715799758989]]}},{"type":"Feature","id":194370,"properties":{"OBJECTID":194370,"PRIMENAME":"Evergreen Drive","ELEVTYP_F":0,"ELEVTYP_T":0},"geometry":{"type":"LineString","coordinates":[[-74.0550871771132,40.0750591840796],[-74.0546230993439,40.0750879920142],[-74.0540030773032,40.0751264756437],[-74.0539450654596,40.075128366219],[-74.0538953989053,40.0751218340897],[-74.053848525759,40.0751089150698],[-74.053796233456,40.0750832645686],[-74.0536696324596,40.0750212540906],[-74.0535512022737,40.0749720134741],[-74.0534024766243,40.0749162862436],[-74.0532234031137,40.0748561878099],[-74.0530112087036,40.074789618624],[-74.052735612073,40.074707951843],[-74.0521264084097,40.0745464798647]]}},{"type":"Feature","id":195237,"properties":{"OBJECTID":195237,"PRIMENAME":"Partridge Run","ELEVTYP_F":0,"ELEVTYP_T":0},"geometry":{"type":"LineString","coordinates":[[-74.0548239324735,40.07255828417],[-74.0549193278849,40.072563001963]]}},{"type":"Feature","id":199483,"properties":{"OBJECTID":199483,"PRIMENAME":"Cranberry Avenue","ELEVTYP_F":0,"ELEVTYP_T":0},"geometry":{"type":"LineString","coordinates":[[-74.0482480863776,40.0734036984724],[-74.0482815480002,40.073412421571],[-74.0497891820993,40.0736290761505]]}},{"type":"Feature","id":200035,"properties":{"OBJECTID":200035,"PRIMENAME":"Egbert Street","ELEVTYP_F":0,"ELEVTYP_T":0},"geometry":{"type":"LineString","coordinates":[[-74.0474214853646,40.0621098919888],[-74.045810212166,40.0617963025209]]}},{"type":"Feature","id":203996,"properties":{"OBJECTID":203996,"PRIMENAME":"Western Avenue","ELEVTYP_F":0,"ELEVTYP_T":0},"geometry":{"type":"LineString","coordinates":[[-74.0513719076174,40.0738619793446],[-74.0514867107056,40.0733848210274]]}},{"type":"Feature","id":209320,"properties":{"OBJECTID":209320,"PRIMENAME":"Bridge Avenue","ELEVTYP_F":0,"ELEVTYP_T":0},"geometry":{"type":"LineString","coordinates":[[-74.0503736585997,40.0712396223845],[-74.0501325447422,40.0712041231021],[-74.0488793217606,40.0710190740388],[-74.0487971759009,40.0710071964244]]}},{"type":"Feature","id":210133,"properties":{"OBJECTID":210133,"PRIMENAME":"Karge Street","ELEVTYP_F":0,"ELEVTYP_T":0},"geometry":{"type":"LineString","coordinates":[[-74.0421979459032,40.0726024455743],[-74.0418957135428,40.0725579851118]]}},{"type":"Feature","id":211945,"properties":{"OBJECTID":211945,"PRIMENAME":"West Lake Avenue","ELEVTYP_F":0,"ELEVTYP_T":0},"geometry":{"type":"LineString","coordinates":[[-74.0498287111516,40.0668324990067],[-74.0496376533686,40.0675867476924]]}},{"type":"Feature","id":213644,"properties":{"OBJECTID":213644,"PRIMENAME":"Twilight Road","ELEVTYP_F":0,"ELEVTYP_T":0},"geometry":{"type":"LineString","coordinates":[[-74.0437723848311,40.075269256197],[-74.0437805565471,40.0752710456314],[-74.0459485247724,40.0757393761006],[-74.0459453655941,40.0757832464034]]}},{"type":"Feature","id":213835,"properties":{"OBJECTID":213835,"PRIMENAME":"Clayton Avenue","ELEVTYP_F":0,"ELEVTYP_T":0},"geometry":{"type":"LineString","coordinates":[[-74.0474214853646,40.0621098919888],[-74.0473633384477,40.0628087351624]]}},{"type":"Feature","id":214435,"properties":{"OBJECTID":214435,"PRIMENAME":"West Lake Avenue","ELEVTYP_F":0,"ELEVTYP_T":0},"geometry":{"type":"LineString","coordinates":[[-74.0487971759009,40.0710071964244],[-74.0486716405881,40.0715111331092]]}},{"type":"Feature","id":215249,"properties":{"OBJECTID":215249,"PRIMENAME":"West Lake Avenue","ELEVTYP_F":0,"ELEVTYP_T":0},"geometry":{"type":"LineString","coordinates":[[-74.0490709092335,40.0699054944131],[-74.0490294119848,40.0700751858344],[-74.0489378319433,40.0704427845662]]}},{"type":"Feature","id":215453,"properties":{"OBJECTID":215453,"PRIMENAME":"Club Drive","ELEVTYP_F":0,"ELEVTYP_T":0},"geometry":{"type":"LineString","coordinates":[[-74.0473463035748,40.0715799758989],[-74.0471631897242,40.0714091056504],[-74.0471336700103,40.0713718186118],[-74.0471152806129,40.0713374023561],[-74.0471118291948,40.071297389937],[-74.0471119132118,40.0712847048889],[-74.0471121133932,40.0712544810775],[-74.0471964778484,40.0708773290133],[-74.0472203557074,40.0707790305006]]}},{"type":"Feature","id":216184,"properties":{"OBJECTID":216184,"PRIMENAME":"Mount Street","ELEVTYP_F":0,"ELEVTYP_T":0},"geometry":{"type":"LineString","coordinates":[[-74.0443170633823,40.0678016009792],[-74.0440168359495,40.0677595416742],[-74.0434232091342,40.0676695453888]]}},{"type":"Feature","id":216863,"properties":{"OBJECTID":216863,"PRIMENAME":"Maryland Avenue","ELEVTYP_F":0,"ELEVTYP_T":0},"geometry":{"type":"LineString","coordinates":[[-74.0478472066974,40.0791370782005],[-74.0466292701929,40.0787352079368],[-74.0465949587865,40.0787085815671]]}},{"type":"Feature","id":217284,"properties":{"OBJECTID":217284,"PRIMENAME":"Grove Street","ELEVTYP_F":0,"ELEVTYP_T":0},"geometry":{"type":"LineString","coordinates":[[-74.0506512306176,40.070137355097],[-74.0523590084761,40.0703895083691]]}},{"type":"Feature","id":219424,"properties":{"OBJECTID":219424,"PRIMENAME":"Delaware Avenue","ELEVTYP_F":0,"ELEVTYP_T":0},"geometry":{"type":"LineString","coordinates":[[-74.048072427972,40.0784314291245],[-74.0478198305128,40.078346929366],[-74.04654415228,40.0779201745018],[-74.0464967507033,40.0779166671906]]}},{"type":"Feature","id":221083,"properties":{"OBJECTID":221083,"PRIMENAME":"West Street","ELEVTYP_F":0,"ELEVTYP_T":0},"geometry":{"type":"LineString","coordinates":[[-74.0457579375071,40.0799622185323],[-74.0458626868454,40.0799945849036],[-74.0458960375734,40.0800204394281],[-74.0459255602996,40.0800577267434],[-74.0459512902072,40.0801064469902],[-74.0459657747042,40.0801694261575],[-74.0460648934244,40.0809528065753]]}},{"type":"Feature","id":221280,"properties":{"OBJECTID":221280,"PRIMENAME":"Metcalfe Street","ELEVTYP_F":0,"ELEVTYP_T":0},"geometry":{"type":"LineString","coordinates":[[-74.0480719834993,40.0673804623314],[-74.0481092527907,40.0673748973041],[-74.0481464843471,40.0673750425225],[-74.0481985615294,40.0673781008275],[-74.0496376533686,40.0675867476924]]}},{"type":"Feature","id":221338,"properties":{"OBJECTID":221338,"PRIMENAME":"Lake Avenue","ELEVTYP_F":0,"ELEVTYP_T":0},"geometry":{"type":"LineString","coordinates":[[-74.0423181465131,40.0806646580823],[-74.0423945778755,40.0804958757054],[-74.0424776372977,40.0803246218294],[-74.0425078472801,40.0802589635544],[-74.0425269449721,40.0801875509965],[-74.0425386867887,40.080104660682],[-74.0425503719434,40.0800246262378],[-74.0425620753025,40.0799474740799],[-74.0425813258714,40.0798531935242],[-74.042638870153,40.0795960477743],[-74.0428735826538,40.0787598306424],[-74.042921100033,40.0785905356516]]}},{"type":"Feature","id":222321,"properties":{"OBJECTID":222321,"PRIMENAME":"Shore Boulevard","ELEVTYP_F":0,"ELEVTYP_T":0},"geometry":{"type":"LineString","coordinates":[[-74.0546460840282,40.0666103250921],[-74.0550610551139,40.0669093209438],[-74.055155035598,40.0669908614833]]}},{"type":"Feature","id":226009,"properties":{"OBJECTID":226009,"PRIMENAME":"Barnegat Lane","ELEVTYP_F":0,"ELEVTYP_T":0},"geometry":{"type":"LineString","coordinates":[[-74.0476835507881,40.0582390237379],[-74.0476833395308,40.0582798388616],[-74.0476869913804,40.0583974633232],[-74.0476909697557,40.0584857371708]]}},{"type":"Feature","id":229892,"properties":{"OBJECTID":229892,"PRIMENAME":"Ocean Avenue","ELEVTYP_F":0,"ELEVTYP_T":0},"geometry":{"type":"LineString","coordinates":[[-74.0427535347696,40.0779587263854],[-74.0426472286947,40.0780582629501],[-74.0425660662606,40.0781119156221],[-74.0425059892616,40.0781656515091],[-74.0424457497399,40.0782436549939],[-74.0423910462636,40.0783327444271]]}},{"type":"Feature","id":230363,"properties":{"OBJECTID":230363,"PRIMENAME":"Holly Avenue","ELEVTYP_F":0,"ELEVTYP_T":0},"geometry":{"type":"LineString","coordinates":[[-74.0503736585997,40.0712396223845],[-74.0502728628348,40.0716401031087],[-74.0502483285335,40.0717411459108]]}},{"type":"Feature","id":230627,"properties":{"OBJECTID":230627,"PRIMENAME":"Howe Court","ELEVTYP_F":0,"ELEVTYP_T":0},"geometry":{"type":"LineString","coordinates":[[-74.0526573053277,40.0707222395221],[-74.0527971316062,40.0699900536402]]}},{"type":"Feature","id":230985,"properties":{"OBJECTID":230985,"PRIMENAME":"Willow Drive","ELEVTYP_F":0,"ELEVTYP_T":0},"geometry":{"type":"LineString","coordinates":[[-74.0502483285335,40.0717411459108],[-74.0503920560676,40.0717621288435],[-74.0520623542622,40.0720123837646]]}},{"type":"Feature","id":231349,"properties":{"OBJECTID":231349,"PRIMENAME":"West Lake Avenue","ELEVTYP_F":0,"ELEVTYP_T":0},"geometry":{"type":"LineString","coordinates":[[-74.0489378319433,40.0704427845662],[-74.0487971759009,40.0710071964244]]}},{"type":"Feature","id":232267,"properties":{"OBJECTID":232267,"PRIMENAME":"Grove Street","ELEVTYP_F":0,"ELEVTYP_T":0},"geometry":{"type":"LineString","coordinates":[[-74.047488967609,40.0696719035379],[-74.0490709092335,40.0699054944131]]}},{"type":"Feature","id":232416,"properties":{"OBJECTID":232416,"PRIMENAME":"Brown Street","ELEVTYP_F":0,"ELEVTYP_T":0},"geometry":{"type":"LineString","coordinates":[[-74.0530149413599,40.0801108841739],[-74.0524181208053,40.0815985454328]]}},{"type":"Feature","id":233838,"properties":{"OBJECTID":233838,"PRIMENAME":"Bay Avenue","ELEVTYP_F":0,"ELEVTYP_T":0},"geometry":{"type":"LineString","coordinates":[[-74.0550871771132,40.0750591840796],[-74.0551471467027,40.0756132004962],[-74.0551518374608,40.0756555781312]]}},{"type":"Feature","id":233912,"properties":{"OBJECTID":233912,"PRIMENAME":"Maple Drive","ELEVTYP_F":0,"ELEVTYP_T":0},"geometry":{"type":"LineString","coordinates":[[-74.0489378319433,40.0704427845662],[-74.0505152519074,40.0706773261804]]}},{"type":"Feature","id":235052,"properties":{"OBJECTID":235052,"PRIMENAME":"Bay Point Harbour","ELEVTYP_F":0,"ELEVTYP_T":0},"geometry":{"type":"LineString","coordinates":[[-74.0537411011406,40.0686854834046],[-74.0537724248369,40.0685841272893],[-74.0537864253562,40.0685161274233],[-74.0538174255196,40.0684131271793],[-74.0538504250086,40.0683021274481],[-74.0538364256228,40.0682571270648],[-74.0537601056551,40.0682351092624],[-74.0536401594824,40.0682246783001],[-74.0533747303349,40.0681819486661]]}},{"type":"Feature","id":235606,"properties":{"OBJECTID":235606,"PRIMENAME":"Clayton Avenue","ELEVTYP_F":0,"ELEVTYP_T":0},"geometry":{"type":"LineString","coordinates":[[-74.0474784277875,40.0614254848494],[-74.0474734581081,40.0614854787921],[-74.0474214853646,40.0621098919888]]}},{"type":"Feature","id":235970,"properties":{"OBJECTID":235970,"PRIMENAME":"Bay Point Place","ELEVTYP_F":0,"ELEVTYP_T":0},"geometry":{"type":"LineString","coordinates":[[-74.053217444659,40.0645016867596],[-74.0532157954563,40.0645025585775],[-74.053112287285,40.0645402371555],[-74.053000603107,40.0645715422997],[-74.0529096542885,40.0645902167446],[-74.0528270471522,40.0645898979283],[-74.0527445799409,40.0645737390646],[-74.052684145999,40.0645539039116]]}},{"type":"Feature","id":238843,"properties":{"OBJECTID":238843,"PRIMENAME":"Woodland Avenue","ELEVTYP_F":0,"ELEVTYP_T":0},"geometry":{"type":"LineString","coordinates":[[-74.0514867107056,40.0733848210274],[-74.0499039123905,40.0731592489643]]}},{"type":"Feature","id":239123,"properties":{"OBJECTID":239123,"PRIMENAME":"East Avenue","ELEVTYP_F":0,"ELEVTYP_T":0},"geometry":{"type":"LineString","coordinates":[[-74.0449221504877,40.0616265060189],[-74.0450818043152,40.06096872089]]}},{"type":"Feature","id":239619,"properties":{"OBJECTID":239619,"PRIMENAME":"FR RT 35 NB to CO 635","ELEVTYP_F":0,"ELEVTYP_T":0},"geometry":{"type":"LineString","coordinates":[[-74.0424044651989,40.0773531028068],[-74.0424153704663,40.0775338708541],[-74.0424393250331,40.0776337847818],[-74.0424666368573,40.0777499370473],[-74.0424766009072,40.077841697576],[-74.0424789034298,40.07788623243],[-74.0424827390175,40.0779604574783],[-74.042467973047,40.0780683174956],[-74.0424392140732,40.0781788675529],[-74.0423910462636,40.0783327444271]]}},{"type":"Feature","id":241765,"properties":{"OBJECTID":241765,"PRIMENAME":"Osborne Avenue","ELEVTYP_F":0,"ELEVTYP_T":0},"geometry":{"type":"LineString","coordinates":[[-74.0423856354109,40.0756280900708],[-74.0416057430955,40.075364366785],[-74.0415785465677,40.0753485276569],[-74.0415514026931,40.0753248382869]]}},{"type":"Feature","id":243576,"properties":{"OBJECTID":243576,"PRIMENAME":"East Avenue","ELEVTYP_F":0,"ELEVTYP_T":0},"geometry":{"type":"LineString","coordinates":[[-74.0446082392103,40.0809312210608],[-74.0446115720345,40.0809028155092],[-74.0446304217259,40.0807421303848],[-74.0451894239072,40.0796411300427],[-74.0452214231894,40.0795431287886],[-74.0452144218484,40.0794811291317],[-74.0451814248678,40.0794411313177],[-74.0451014229737,40.0794041310718],[-74.0442004227574,40.0790941296585],[-74.0439124232263,40.078995128653]]}},{"type":"Feature","id":243839,"properties":{"OBJECTID":243839,"PRIMENAME":"Birch Place","ELEVTYP_F":0,"ELEVTYP_T":0},"geometry":{"type":"LineString","coordinates":[[-74.0459453655941,40.0757832464034],[-74.045931675004,40.0759733489393],[-74.0458521975593,40.0767963854952]]}},{"type":"Feature","id":247096,"properties":{"OBJECTID":247096,"PRIMENAME":"Lake Avenue","ELEVTYP_F":0,"ELEVTYP_T":0},"geometry":{"type":"LineString","coordinates":[[-74.0440492967821,40.0741557741466],[-74.04386521238,40.0748911791467],[-74.0438335171233,40.0750202732421],[-74.0437723848311,40.075269256197]]}},{"type":"Feature","id":249146,"properties":{"OBJECTID":249146,"PRIMENAME":"Johnson Street","ELEVTYP_F":0,"ELEVTYP_T":0},"geometry":{"type":"LineString","coordinates":[[-74.0454837390877,40.063121480944],[-74.0458187813676,40.0631854157236],[-74.0467295011681,40.0633630363708]]}},{"type":"Feature","id":249530,"properties":{"OBJECTID":249530,"PRIMENAME":"Beacon Lane","ELEVTYP_F":0,"ELEVTYP_T":0},"geometry":{"type":"LineString","coordinates":[[-74.0419999676401,40.077132647594],[-74.0419730090718,40.0772999231177],[-74.0419309633992,40.0774627462944],[-74.0418505100487,40.077799882705],[-74.0418238448329,40.0778912786496],[-74.0417973134963,40.077962689639],[-74.0417600716343,40.0780498077727],[-74.0417594820112,40.0780511862027],[-74.0417030094858,40.0781481745979],[-74.0414693852052,40.0785647852417]]}},{"type":"Feature","id":253936,"properties":{"OBJECTID":253936,"PRIMENAME":"Delaware Avenue","ELEVTYP_F":0,"ELEVTYP_T":0},"geometry":{"type":"LineString","coordinates":[[-74.0538295427233,40.0803886115073],[-74.0530149413599,40.0801108841739]]}},{"type":"Feature","id":254281,"properties":{"OBJECTID":254281,"PRIMENAME":"Bay Avenue","ELEVTYP_F":0,"ELEVTYP_T":0},"geometry":{"type":"LineString","coordinates":[[-74.054859497861,40.0729082567255],[-74.0549399697459,40.0736992455476],[-74.0550625358724,40.0748314751219]]}},{"type":"Feature","id":254729,"properties":{"OBJECTID":254729,"PRIMENAME":"Delaware Avenue","ELEVTYP_F":0,"ELEVTYP_T":0},"geometry":{"type":"LineString","coordinates":[[-74.041459177772,40.0762026186658],[-74.0420832115069,40.0764052751126],[-74.0422259517461,40.0764520430113]]}},{"type":"Feature","id":257516,"properties":{"OBJECTID":257516,"PRIMENAME":"Clayton Avenue","ELEVTYP_F":0,"ELEVTYP_T":0},"geometry":{"type":"LineString","coordinates":[[-74.0475355127943,40.0607356433579],[-74.0474784277875,40.0614254848494]]}},{"type":"Feature","id":257691,"properties":{"OBJECTID":257691,"PRIMENAME":"Bay Avenue","ELEVTYP_F":0,"ELEVTYP_T":0},"geometry":{"type":"LineString","coordinates":[[-74.0544866844221,40.0701371788019],[-74.0545159840783,40.0702087795941],[-74.054666138549,40.0705925483403],[-74.0547061943203,40.0707299690395],[-74.054727839217,40.0708301464026],[-74.0547386147789,40.070893110328],[-74.054738186642,40.0709588593719],[-74.0547367004655,40.071011371347]]}},{"type":"Feature","id":263527,"properties":{"OBJECTID":263527,"PRIMENAME":"Western Avenue","ELEVTYP_F":0,"ELEVTYP_T":0},"geometry":{"type":"LineString","coordinates":[[-74.0512268293576,40.0744161646507],[-74.0512570237539,40.0743008216802],[-74.0513719076174,40.0738619793446]]}},{"type":"Feature","id":263721,"properties":{"OBJECTID":263721,"PRIMENAME":"Delaware Avenue","ELEVTYP_F":0,"ELEVTYP_T":0},"geometry":{"type":"LineString","coordinates":[[-74.0490634587594,40.0787669739665],[-74.0482188949734,40.0784809702029]]}},{"type":"Feature","id":265285,"properties":{"OBJECTID":265285,"PRIMENAME":"East Street","ELEVTYP_F":0,"ELEVTYP_T":0},"geometry":{"type":"LineString","coordinates":[[-74.0459920044811,40.0795832662129],[-74.0457886443113,40.0799342265114],[-74.0457579375071,40.0799622185323]]}},{"type":"Feature","id":266805,"properties":{"OBJECTID":266805,"PRIMENAME":"Holly Avenue","ELEVTYP_F":0,"ELEVTYP_T":0},"geometry":{"type":"LineString","coordinates":[[-74.0502483285335,40.0717411459108],[-74.0501336228934,40.0722133073546]]}},{"type":"Feature","id":266880,"properties":{"OBJECTID":266880,"PRIMENAME":"Charleston Street","ELEVTYP_F":0,"ELEVTYP_T":0},"geometry":{"type":"LineString","coordinates":[[-74.0473468835521,40.0800203243634],[-74.0478472066974,40.0791370782005]]}},{"type":"Feature","id":267573,"properties":{"OBJECTID":267573,"PRIMENAME":"Delaware Avenue","ELEVTYP_F":0,"ELEVTYP_T":0},"geometry":{"type":"LineString","coordinates":[[-74.0498956206583,40.0790487495726],[-74.0490634587594,40.0787669739665]]}},{"type":"Feature","id":271007,"properties":{"OBJECTID":271007,"PRIMENAME":"Dallas Street","ELEVTYP_F":0,"ELEVTYP_T":0},"geometry":{"type":"LineString","coordinates":[[-74.0498467622087,40.0808621984969],[-74.0507180876102,40.0793277371867]]}},{"type":"Feature","id":271891,"properties":{"OBJECTID":271891,"PRIMENAME":"Bay Boulevard","ELEVTYP_F":0,"ELEVTYP_T":0},"geometry":{"type":"LineString","coordinates":[[-74.0557857038358,40.0628753401656],[-74.0557825287914,40.0628748974593],[-74.0557260532693,40.0628894775332],[-74.0555669042831,40.0630234841998],[-74.055294648815,40.063252731132]]}},{"type":"Feature","id":276838,"properties":{"OBJECTID":276838,"PRIMENAME":"East Avenue","ELEVTYP_F":0,"ELEVTYP_T":0},"geometry":{"type":"LineString","coordinates":[[-74.0457781303602,40.0581164692772],[-74.0458484639898,40.0578443897808]]}},{"type":"Feature","id":276917,"properties":{"OBJECTID":276917,"PRIMENAME":"Howe Street","ELEVTYP_F":0,"ELEVTYP_T":0},"geometry":{"type":"LineString","coordinates":[[-74.0431187717578,40.0688889709315],[-74.0440122448597,40.0690214110642]]}},{"type":"Feature","id":276966,"properties":{"OBJECTID":276966,"PRIMENAME":"Bridge Avenue","ELEVTYP_F":0,"ELEVTYP_T":0},"geometry":{"type":"LineString","coordinates":[[-74.0449594875473,40.0704499304009],[-74.043708501083,40.0702659600723]]}},{"type":"Feature","id":278782,"properties":{"OBJECTID":278782,"PRIMENAME":"West Lake Avenue","ELEVTYP_F":0,"ELEVTYP_T":0},"geometry":{"type":"LineString","coordinates":[[-74.0485550230513,40.0719790027426],[-74.0484381123785,40.0724533776893]]}},{"type":"Feature","id":279489,"properties":{"OBJECTID":279489,"PRIMENAME":"Metcalfe Street","ELEVTYP_F":0,"ELEVTYP_T":0},"geometry":{"type":"LineString","coordinates":[[-74.0479834794511,40.0676501471431],[-74.0480381819204,40.0674289499742],[-74.0480495193386,40.0674003881369],[-74.0480719834993,40.0673804623314]]}},{"type":"Feature","id":281273,"properties":{"OBJECTID":281273,"PRIMENAME":"Osborne Avenue","ELEVTYP_F":0,"ELEVTYP_T":0},"geometry":{"type":"LineString","coordinates":[[-74.0435521673545,40.0760203037951],[-74.044189564353,40.0762346151006],[-74.0458521975593,40.0767963854952]]}},{"type":"Feature","id":281516,"properties":{"OBJECTID":281516,"PRIMENAME":"Lake Avenue","ELEVTYP_F":0,"ELEVTYP_T":0},"geometry":{"type":"LineString","coordinates":[[-74.0455791316382,40.0679783603209],[-74.0453834801839,40.0687656923709],[-74.0452753730592,40.0692086376503]]}},{"type":"Feature","id":287409,"properties":{"OBJECTID":287409,"PRIMENAME":"Unnamed Segment","ELEVTYP_F":0,"ELEVTYP_T":0},"geometry":{"type":"LineString","coordinates":[[-74.0437133084838,40.0797214063245],[-74.0436684218971,40.0798851294789]]}},{"type":"Feature","id":292735,"properties":{"OBJECTID":292735,"PRIMENAME":"Barnegat Boulevard","ELEVTYP_F":0,"ELEVTYP_T":0},"geometry":{"type":"LineString","coordinates":[[-74.055294648815,40.063252731132],[-74.0554855813806,40.0632374585002],[-74.0555750149725,40.0632206712756],[-74.0556421555961,40.0631980052064],[-74.0556827522103,40.0631787428093],[-74.0557019022882,40.0631696552753],[-74.0557579513322,40.0631326984988],[-74.0558290500788,40.0630729037114],[-74.0558890535667,40.0630102111433],[-74.0559116642124,40.0629617323064],[-74.0559008138627,40.0629158993489],[-74.0558523528245,40.0628846359747],[-74.0557857038358,40.0628753401656]]}},{"type":"Feature","id":293043,"properties":{"OBJECTID":293043,"PRIMENAME":"Delaware Avenue","ELEVTYP_F":0,"ELEVTYP_T":0},"geometry":{"type":"LineString","coordinates":[[-74.0422259517461,40.0764520430113],[-74.0424100924123,40.0765123991053],[-74.042632887608,40.0765961877416],[-74.043409193729,40.0768537679397],[-74.0437334228916,40.0769581288297]]}},{"type":"Feature","id":295546,"properties":{"OBJECTID":295546,"PRIMENAME":"Bridge Avenue","ELEVTYP_F":0,"ELEVTYP_T":0},"geometry":{"type":"LineString","coordinates":[[-74.0472203557074,40.0707790305006],[-74.0459430225302,40.0705941391694],[-74.0457519281395,40.0705664773025],[-74.0454829918648,40.0705269241184],[-74.0449594875473,40.0704499304009]]}},{"type":"Feature","id":295941,"properties":{"OBJECTID":295941,"PRIMENAME":"Bay Boulevard","ELEVTYP_F":0,"ELEVTYP_T":0},"geometry":{"type":"LineString","coordinates":[[-74.055294648815,40.063252731132],[-74.0547118793811,40.0637434983368],[-74.0545881860552,40.0638745793378],[-74.0545055879384,40.0639772112451],[-74.0544492362072,40.0640656409883],[-74.0544264768591,40.0641313312459],[-74.0544242874328,40.0641548507912]]}},{"type":"Feature","id":296984,"properties":{"OBJECTID":296984,"PRIMENAME":"Bay Avenue","ELEVTYP_F":0,"ELEVTYP_T":0},"geometry":{"type":"LineString","coordinates":[[-74.0542314721118,40.0693154553823],[-74.0542941002833,40.0694215009399],[-74.0543344177289,40.0695131576072],[-74.0543672259682,40.0696219706269],[-74.0543916831561,40.0697731400013]]}},{"type":"Feature","id":299964,"properties":{"OBJECTID":299964,"PRIMENAME":"East Avenue","ELEVTYP_F":0,"ELEVTYP_T":0},"geometry":{"type":"LineString","coordinates":[[-74.0445948769767,40.0629514860559],[-74.0447990484528,40.0621336328185],[-74.0449221504877,40.0616265060189]]}},{"type":"Feature","id":300243,"properties":{"OBJECTID":300243,"PRIMENAME":"Lake Avenue","ELEVTYP_F":0,"ELEVTYP_T":0},"geometry":{"type":"LineString","coordinates":[[-74.0446573724408,40.0716983312676],[-74.0443556831285,40.0729293547478]]}},{"type":"Feature","id":301824,"properties":{"OBJECTID":301824,"PRIMENAME":"Anchor Court","ELEVTYP_F":0,"ELEVTYP_T":0},"geometry":{"type":"LineString","coordinates":[[-74.053217444659,40.0645016867596],[-74.0532683009784,40.0646804114936],[-74.0533210900812,40.0648202696433],[-74.0533781556286,40.0649346671854],[-74.0534558101403,40.0650587265536],[-74.0535212952745,40.0651478172139],[-74.0536073697959,40.0652465138235],[-74.0537140752115,40.0653484747013],[-74.0537923487084,40.0654125021837]]}},{"type":"Feature","id":303312,"properties":{"OBJECTID":303312,"PRIMENAME":"Shore Boulevard","ELEVTYP_F":0,"ELEVTYP_T":0},"geometry":{"type":"LineString","coordinates":[[-74.055155035598,40.0669908614833],[-74.0553127235432,40.0671276348265],[-74.0568776691281,40.0682314305219]]}},{"type":"Feature","id":304142,"properties":{"OBJECTID":304142,"PRIMENAME":"Holly Avenue","ELEVTYP_F":0,"ELEVTYP_T":0},"geometry":{"type":"LineString","coordinates":[[-74.0501336228934,40.0722133073546],[-74.0500213758319,40.0726755948781]]}},{"type":"Feature","id":304232,"properties":{"OBJECTID":304232,"PRIMENAME":"Tyler Street","ELEVTYP_F":0,"ELEVTYP_T":0},"geometry":{"type":"LineString","coordinates":[[-74.0532582253082,40.0817933845496],[-74.0538295427233,40.0803886115073]]}},{"type":"Feature","id":304472,"properties":{"OBJECTID":304472,"PRIMENAME":"Club Drive","ELEVTYP_F":0,"ELEVTYP_T":0},"geometry":{"type":"LineString","coordinates":[[-74.0477340967063,40.0686616213112],[-74.0477704641828,40.0685117309778],[-74.0479834794511,40.0676501471431]]}},{"type":"Feature","id":304947,"properties":{"OBJECTID":304947,"PRIMENAME":"FR RT 35 SB to RT 35 NB","ELEVTYP_F":0,"ELEVTYP_T":0},"geometry":{"type":"LineString","coordinates":[[-74.0473468835521,40.0800203243634],[-74.0472796523377,40.0800473796542],[-74.0472564430394,40.080056103129],[-74.0472344501228,40.0800665246558],[-74.0472138853162,40.0800785423837],[-74.0471949439988,40.0800920444906],[-74.0471778076061,40.0801069001855],[-74.0471626365285,40.0801229695879],[-74.0471495795394,40.0801400965597],[-74.047138758463,40.0801581221552],[-74.047133515904,40.0801720086822],[-74.0471292981515,40.0801860996865],[-74.0471261185525,40.080200350579],[-74.0471239871693,40.0802147162642],[-74.047122910747,40.0802291512836],[-74.0471228926924,40.0802436099593],[-74.0471239330635,40.0802580465383],[-74.0471260285687,40.0802724153378],[-74.0471258548205,40.0803088917279],[-74.0471271142003,40.0803453555313],[-74.0471298055632,40.0803817735306],[-74.0471339264597,40.0804181125502]]}},{"type":"Feature","id":306619,"properties":{"OBJECTID":306619,"PRIMENAME":"Franklin Street","ELEVTYP_F":0,"ELEVTYP_T":0},"geometry":{"type":"LineString","coordinates":[[-74.0565640803737,40.0763753254029],[-74.0553265316063,40.0764140843057]]}},{"type":"Feature","id":309787,"properties":{"OBJECTID":309787,"PRIMENAME":"Charleston Street","ELEVTYP_F":0,"ELEVTYP_T":0},"geometry":{"type":"LineString","coordinates":[[-74.0481013474262,40.0786884673349],[-74.0482188949734,40.0784809702029]]}},{"type":"Feature","id":309969,"properties":{"OBJECTID":309969,"PRIMENAME":"Johnson Street","ELEVTYP_F":0,"ELEVTYP_T":0},"geometry":{"type":"LineString","coordinates":[[-74.0439992005579,40.0628374640129],[-74.0445948769767,40.0629514860559]]}},{"type":"Feature","id":311379,"properties":{"OBJECTID":311379,"PRIMENAME":"Delaware Avenue","ELEVTYP_F":0,"ELEVTYP_T":0},"geometry":{"type":"LineString","coordinates":[[-74.0530149413599,40.0801108841739],[-74.0521902190483,40.079829653325]]}},{"type":"Feature","id":312669,"properties":{"OBJECTID":312669,"PRIMENAME":"Bridge Avenue","ELEVTYP_F":0,"ELEVTYP_T":0},"geometry":{"type":"LineString","coordinates":[[-74.0548463616982,40.0718728871452],[-74.0547544306263,40.0718555440663]]}},{"type":"Feature","id":313497,"properties":{"OBJECTID":313497,"PRIMENAME":"Bridge Avenue","ELEVTYP_F":0,"ELEVTYP_T":0},"geometry":{"type":"LineString","coordinates":[[-74.0523631041795,40.0715362719902],[-74.0522001333049,40.0715123889414],[-74.0521904988575,40.0715109313056],[-74.0512890665822,40.0713744801836],[-74.0503736585997,40.0712396223845]]}},{"type":"Feature","id":315219,"properties":{"OBJECTID":315219,"PRIMENAME":"Beacon Lane","ELEVTYP_F":0,"ELEVTYP_T":0},"geometry":{"type":"LineString","coordinates":[[-74.0414693852052,40.0785647852417],[-74.0414048333794,40.0786453326791],[-74.0413652727231,40.0787111112859],[-74.0413468261836,40.0787598017659],[-74.0413404487007,40.0787926905355],[-74.0413394046745,40.0788555007222],[-74.0413296518737,40.0789255603304],[-74.0413263815284,40.0789428938254],[-74.04109541351,40.0793612939358],[-74.0408807507053,40.0796071187976],[-74.0407663463261,40.0797100108099],[-74.0407405220422,40.0797394358423],[-74.0406982774005,40.0798256276737]]}},{"type":"Feature","id":315501,"properties":{"OBJECTID":315501,"PRIMENAME":"North Street","ELEVTYP_F":0,"ELEVTYP_T":0},"geometry":{"type":"LineString","coordinates":[[-74.042786379531,40.0739666408797],[-74.0418968520485,40.073833437712]]}},{"type":"Feature","id":317012,"properties":{"OBJECTID":317012,"PRIMENAME":"Park Avenue","ELEVTYP_F":0,"ELEVTYP_T":0},"geometry":{"type":"LineString","coordinates":[[-74.054859497861,40.0729082567255],[-74.0531784436658,40.0726601334811]]}},{"type":"Feature","id":317157,"properties":{"OBJECTID":317157,"PRIMENAME":"Lake Avenue","ELEVTYP_F":0,"ELEVTYP_T":0},"geometry":{"type":"LineString","coordinates":[[-74.0452753730592,40.0692086376503],[-74.045253701024,40.0692973367361],[-74.0452081717197,40.0694754117412],[-74.0451524738482,40.0696403516042],[-74.044966644705,40.0703893417901],[-74.0449594875473,40.0704499304009]]}},{"type":"Feature","id":320688,"properties":{"OBJECTID":320688,"PRIMENAME":"Bridge Avenue","ELEVTYP_F":0,"ELEVTYP_T":0},"geometry":{"type":"LineString","coordinates":[[-74.0487971759009,40.0710071964244],[-74.0472203557074,40.0707790305006]]}},{"type":"Feature","id":321035,"properties":{"OBJECTID":321035,"PRIMENAME":"Willow Drive","ELEVTYP_F":0,"ELEVTYP_T":0},"geometry":{"type":"LineString","coordinates":[[-74.0486716405881,40.0715111331092],[-74.0502483285335,40.0717411459108]]}},{"type":"Feature","id":322334,"properties":{"OBJECTID":322334,"PRIMENAME":"Holly Avenue","ELEVTYP_F":0,"ELEVTYP_T":0},"geometry":{"type":"LineString","coordinates":[[-74.0497891820993,40.0736290761505],[-74.0496913169352,40.0740285515991]]}},{"type":"Feature","id":325729,"properties":{"OBJECTID":325729,"PRIMENAME":"East Avenue","ELEVTYP_F":0,"ELEVTYP_T":0},"geometry":{"type":"LineString","coordinates":[[-74.0418968520485,40.073833437712],[-74.0421979459032,40.0726024455743]]}},{"type":"Feature","id":325926,"properties":{"OBJECTID":325926,"PRIMENAME":"Johnson Street","ELEVTYP_F":0,"ELEVTYP_T":0},"geometry":{"type":"LineString","coordinates":[[-74.0467295011681,40.0633630363708],[-74.0473089292566,40.0634770088138]]}},{"type":"Feature","id":326748,"properties":{"OBJECTID":326748,"PRIMENAME":"Johnson Street","ELEVTYP_F":0,"ELEVTYP_T":0},"geometry":{"type":"LineString","coordinates":[[-74.0473089292566,40.0634770088138],[-74.0477302451803,40.0635598889104]]}},{"type":"Feature","id":328413,"properties":{"OBJECTID":328413,"PRIMENAME":"Lake Avenue","ELEVTYP_F":0,"ELEVTYP_T":0},"geometry":{"type":"LineString","coordinates":[[-74.0459119023563,40.0666390413268],[-74.0458357234103,40.0669456157487],[-74.0455791316382,40.0679783603209]]}},{"type":"Feature","id":328641,"properties":{"OBJECTID":328641,"PRIMENAME":"Bay Avenue","ELEVTYP_F":0,"ELEVTYP_T":0},"geometry":{"type":"LineString","coordinates":[[-74.0552677679406,40.0769352873058],[-74.0552643280177,40.0770520598135],[-74.0552526211226,40.0771378068197],[-74.0552332955823,40.0772464192992],[-74.0551870054368,40.077495022989],[-74.0551254790509,40.0777950688827],[-74.0549737473869,40.0785511783173]]}},{"type":"Feature","id":331714,"properties":{"OBJECTID":331714,"PRIMENAME":"West Lake Avenue","ELEVTYP_F":0,"ELEVTYP_T":0},"geometry":{"type":"LineString","coordinates":[[-74.0483209798867,40.0729286027675],[-74.0482187163214,40.0733435436871],[-74.0482148110394,40.0733721074735],[-74.0482258079316,40.0733950459965],[-74.0482480863776,40.0734036984724]]}},{"type":"Feature","id":333914,"properties":{"OBJECTID":333914,"PRIMENAME":"Bay Avenue","ELEVTYP_F":0,"ELEVTYP_T":0},"geometry":{"type":"LineString","coordinates":[[-74.0552364047293,40.0764169060596],[-74.055252643687,40.0765630194618],[-74.0552630681401,40.0766745743449],[-74.0552661324729,40.0767746801763],[-74.0552691049427,40.0768890886654],[-74.0552677679406,40.0769352873058]]}},{"type":"Feature","id":336898,"properties":{"OBJECTID":336898,"PRIMENAME":"Old Farm Road","ELEVTYP_F":0,"ELEVTYP_T":0},"geometry":{"type":"LineString","coordinates":[[-74.0549506028596,40.079133335287],[-74.0548633365137,40.0791135171027]]}},{"type":"Feature","id":338982,"properties":{"OBJECTID":338982,"PRIMENAME":"Harris Street","ELEVTYP_F":0,"ELEVTYP_T":0},"geometry":{"type":"LineString","coordinates":[[-74.0424981436129,40.0713861643756],[-74.0420604667744,40.0713230221954]]}},{"type":"Feature","id":339337,"properties":{"OBJECTID":339337,"PRIMENAME":"Franklin Street","ELEVTYP_F":0,"ELEVTYP_T":0},"geometry":{"type":"LineString","coordinates":[[-74.0553265316063,40.0764140843057],[-74.0552364047293,40.0764169060596]]}},{"type":"Feature","id":339806,"properties":{"OBJECTID":339806,"PRIMENAME":"East Avenue","ELEVTYP_F":0,"ELEVTYP_T":0},"geometry":{"type":"LineString","coordinates":[[-74.0438247204076,40.0660642893915],[-74.0442942640387,40.0641554199079],[-74.0445948769767,40.0629514860559]]}},{"type":"Feature","id":340285,"properties":{"OBJECTID":340285,"PRIMENAME":"Twilight Road","ELEVTYP_F":0,"ELEVTYP_T":0},"geometry":{"type":"LineString","coordinates":[[-74.0425344752494,40.0749982159328],[-74.0437723848311,40.075269256197]]}},{"type":"Feature","id":340482,"properties":{"OBJECTID":340482,"PRIMENAME":"Clayton Avenue","ELEVTYP_F":0,"ELEVTYP_T":0},"geometry":{"type":"LineString","coordinates":[[-74.0473633384477,40.0628087351624],[-74.0473196331331,40.0633551307093],[-74.0473089292566,40.0634770088138]]}},{"type":"Feature","id":342291,"properties":{"OBJECTID":342291,"PRIMENAME":"Bay Avenue","ELEVTYP_F":0,"ELEVTYP_T":0},"geometry":{"type":"LineString","coordinates":[[-74.0548633365137,40.0791135171027],[-74.0548406550814,40.0792324124054],[-74.0548134107378,40.0794153105284],[-74.0548015173946,40.0795239514527],[-74.0547896035767,40.0796411308648],[-74.0547761761842,40.0798095872137]]}},{"type":"Feature","id":343292,"properties":{"OBJECTID":343292,"PRIMENAME":"Strickland Street","ELEVTYP_F":0,"ELEVTYP_T":0},"geometry":{"type":"LineString","coordinates":[[-74.046135559744,40.0604665609249],[-74.0470614899588,40.0606457481385]]}},{"type":"Feature","id":343625,"properties":{"OBJECTID":343625,"PRIMENAME":"Lake Avenue","ELEVTYP_F":0,"ELEVTYP_T":0},"geometry":{"type":"LineString","coordinates":[[-74.0449594875473,40.0704499304009],[-74.0449625170778,40.0704994129313],[-74.0449587554435,40.0705491984409],[-74.0449165322608,40.0707404084899],[-74.0449026196731,40.070774423496],[-74.0448818659038,40.0708215338382],[-74.044867954996,40.0708660356285],[-74.0446752240232,40.0716254857449],[-74.0446573724408,40.0716983312676]]}},{"type":"Feature","id":343861,"properties":{"OBJECTID":343861,"PRIMENAME":"Bridge Avenue","ELEVTYP_F":0,"ELEVTYP_T":0},"geometry":{"type":"LineString","coordinates":[[-74.043708501083,40.0702659600723],[-74.0433943551016,40.0702197542813],[-74.0428089731605,40.070133575668]]}},{"type":"Feature","id":344095,"properties":{"OBJECTID":344095,"PRIMENAME":"Osborne Avenue","ELEVTYP_F":0,"ELEVTYP_T":0},"geometry":{"type":"LineString","coordinates":[[-74.0458521975593,40.0767963854952],[-74.0460331656257,40.0768575259132]]}},{"type":"Feature","id":344458,"properties":{"OBJECTID":344458,"PRIMENAME":"Osborne Avenue","ELEVTYP_F":0,"ELEVTYP_T":0},"geometry":{"type":"LineString","coordinates":[[-74.0463151528186,40.0769527971783],[-74.0467251191276,40.07709132989]]}},{"type":"Feature","id":346249,"properties":{"OBJECTID":346249,"PRIMENAME":"Bayberry Lane","ELEVTYP_F":0,"ELEVTYP_T":0},"geometry":{"type":"LineString","coordinates":[[-74.0479834794511,40.0676501471431],[-74.0471649245459,40.0675317291502]]}},{"type":"Feature","id":347157,"properties":{"OBJECTID":347157,"PRIMENAME":"Osborne Avenue","ELEVTYP_F":0,"ELEVTYP_T":0},"geometry":{"type":"LineString","coordinates":[[-74.0423856354109,40.0756280900708],[-74.0435521673545,40.0760203037951]]}},{"type":"Feature","id":347184,"properties":{"OBJECTID":347184,"PRIMENAME":"Carter Avenue","ELEVTYP_F":0,"ELEVTYP_T":0},"geometry":{"type":"LineString","coordinates":[[-74.0423181465131,40.0806646580823],[-74.0420597626678,40.0805939881944],[-74.0411039740769,40.0803309928926]]}},{"type":"Feature","id":350554,"properties":{"OBJECTID":350554,"PRIMENAME":"Main Avenue","ELEVTYP_F":0,"ELEVTYP_T":0},"geometry":{"type":"LineString","coordinates":[[-74.042786379531,40.0739666408797],[-74.0425344752494,40.0749982159328]]}},{"type":"Feature","id":350650,"properties":{"OBJECTID":350650,"PRIMENAME":"Sea Avenue","ELEVTYP_F":0,"ELEVTYP_T":0},"geometry":{"type":"LineString","coordinates":[[-74.0481977087056,40.0802752822512],[-74.0473468835521,40.0800203243634]]}},{"type":"Feature","id":351355,"properties":{"OBJECTID":351355,"PRIMENAME":"Main Avenue","ELEVTYP_F":0,"ELEVTYP_T":0},"geometry":{"type":"LineString","coordinates":[[-74.0443170633823,40.0678016009792],[-74.0442567994073,40.0680457529993],[-74.0440122448597,40.0690214110642]]}},{"type":"Feature","id":352865,"properties":{"OBJECTID":352865,"PRIMENAME":"Ocean Avenue","ELEVTYP_F":0,"ELEVTYP_T":0},"geometry":{"type":"LineString","coordinates":[[-74.0468183925566,40.0575878756853],[-74.0467381937357,40.0579857174364],[-74.0467289390987,40.0580337396776]]}},{"type":"Feature","id":353004,"properties":{"OBJECTID":353004,"PRIMENAME":"State Highway 35 Avenue","ELEVTYP_F":0,"ELEVTYP_T":0},"geometry":{"type":"LineString","coordinates":[[-74.0439461114749,40.0788779388251],[-74.0440911349148,40.0789370483939],[-74.0442721557821,40.0790056521945],[-74.0445042806474,40.0790851911202],[-74.0446516962482,40.0791345458817]]}},{"type":"Feature","id":353666,"properties":{"OBJECTID":353666,"PRIMENAME":"State Highway 35 Avenue","ELEVTYP_F":0,"ELEVTYP_T":0},"geometry":{"type":"LineString","coordinates":[[-74.0427535347696,40.0779587263854],[-74.0427714565741,40.0779828735477],[-74.0428312426066,40.0780634098872],[-74.0429282062768,40.0781746209758],[-74.0430160687171,40.0782571621488],[-74.04315947801,40.0783864287009],[-74.0432891066537,40.0784870338359],[-74.0434928644219,40.0786343815044],[-74.043627233668,40.0787207028365],[-74.0437037737093,40.07876528601]]}},{"type":"Feature","id":356399,"properties":{"OBJECTID":356399,"PRIMENAME":"Main Avenue","ELEVTYP_F":0,"ELEVTYP_T":0},"geometry":{"type":"LineString","coordinates":[[-74.0422718941053,40.0760994518115],[-74.0422430012295,40.0762594989288],[-74.0422282987664,40.0763738108639],[-74.0422259517461,40.0764520430113]]}},{"type":"Feature","id":359114,"properties":{"OBJECTID":359114,"PRIMENAME":"Main Avenue","ELEVTYP_F":0,"ELEVTYP_T":0},"geometry":{"type":"LineString","coordinates":[[-74.0456460705335,40.0624743312129],[-74.0454837390877,40.063121480944]]}},{"type":"Feature","id":363185,"properties":{"OBJECTID":363185,"PRIMENAME":"State Highway 35 Avenue","ELEVTYP_F":0,"ELEVTYP_T":0},"geometry":{"type":"LineString","coordinates":[[-74.0437037737093,40.07876528601],[-74.0437570305476,40.0787962985667],[-74.0438962140194,40.0788576001834],[-74.0439461114749,40.0788779388251]]}},{"type":"Feature","id":370810,"properties":{"OBJECTID":370810,"PRIMENAME":"Main Avenue","ELEVTYP_F":0,"ELEVTYP_T":0},"geometry":{"type":"LineString","coordinates":[[-74.0467289390987,40.0580337396776],[-74.0466948300005,40.0582107470486],[-74.0466469404542,40.0584178864126],[-74.0465895840419,40.0586464576932],[-74.0464544652006,40.059184537867]]}},{"type":"Feature","id":370834,"properties":{"OBJECTID":370834,"PRIMENAME":"Forsyth Street","ELEVTYP_F":0,"ELEVTYP_T":0},"geometry":{"type":"LineString","coordinates":[[-74.0446472806087,40.0664523373057],[-74.0459119023563,40.0666390413268]]}},{"type":"Feature","id":371085,"properties":{"OBJECTID":371085,"PRIMENAME":"Main Avenue","ELEVTYP_F":0,"ELEVTYP_T":0},"geometry":{"type":"LineString","coordinates":[[-74.0424044651989,40.0773531028068],[-74.0424626577453,40.0775114637412],[-74.0425315902047,40.0776404360078],[-74.042623726448,40.0777837758307],[-74.0427535347696,40.0779587263854]]}},{"type":"Feature","id":372552,"properties":{"OBJECTID":372552,"PRIMENAME":"Main Avenue","ELEVTYP_F":0,"ELEVTYP_T":0},"geometry":{"type":"LineString","coordinates":[[-74.043708501083,40.0702659600723],[-74.0433918875932,40.071515041808]]}},{"type":"Feature","id":372970,"properties":{"OBJECTID":372970,"PRIMENAME":"Ocean Avenue","ELEVTYP_F":0,"ELEVTYP_T":0},"geometry":{"type":"LineString","coordinates":[[-74.0469389388104,40.0569346298499],[-74.0468183925566,40.0575878756853]]}},{"type":"Feature","id":376667,"properties":{"OBJECTID":376667,"PRIMENAME":"Main Avenue","ELEVTYP_F":0,"ELEVTYP_T":0},"geometry":{"type":"LineString","coordinates":[[-74.0425344752494,40.0749982159328],[-74.0424395473414,40.0754059047061],[-74.0423856354109,40.0756280900708]]}},{"type":"Feature","id":377598,"properties":{"OBJECTID":377598,"PRIMENAME":"State Highway 35 Avenue","ELEVTYP_F":0,"ELEVTYP_T":0},"geometry":{"type":"LineString","coordinates":[[-74.0446516962482,40.0791345458817],[-74.0459920044811,40.0795832662129]]}},{"type":"Feature","id":378363,"properties":{"OBJECTID":378363,"PRIMENAME":"Main Avenue","ELEVTYP_F":0,"ELEVTYP_T":0},"geometry":{"type":"LineString","coordinates":[[-74.0423856354109,40.0756280900708],[-74.042339036633,40.07582018871],[-74.0422967139892,40.0759961079513],[-74.0422720231645,40.0760987380717],[-74.0422718941053,40.0760994518115]]}},{"type":"Feature","id":379516,"properties":{"OBJECTID":379516,"PRIMENAME":"Main Avenue","ELEVTYP_F":0,"ELEVTYP_T":0},"geometry":{"type":"LineString","coordinates":[[-74.0440122448597,40.0690214110642],[-74.0437501365578,40.0700670057705],[-74.043708501083,40.0702659600723]]}},{"type":"Feature","id":379953,"properties":{"OBJECTID":379953,"PRIMENAME":"Richmond Avenue","ELEVTYP_F":0,"ELEVTYP_T":0},"geometry":{"type":"LineString","coordinates":[[-74.0473468835521,40.0800203243634],[-74.047726603871,40.0801666505907],[-74.0478238962278,40.0802034147822],[-74.0478890596094,40.0802280391631],[-74.0479678995862,40.0802712558351],[-74.0480420095035,40.0803215919896],[-74.0480697181099,40.0803497089334],[-74.0481021124037,40.0803825799917],[-74.0481436434363,40.0804363305116],[-74.0481895124269,40.0805366313255],[-74.0481924794599,40.080550744143],[-74.0482120685293,40.0806439512703],[-74.0482264401567,40.0807461611852]]}},{"type":"Feature","id":380880,"properties":{"OBJECTID":380880,"PRIMENAME":"Ocean Road","ELEVTYP_F":0,"ELEVTYP_T":0},"geometry":{"type":"LineString","coordinates":[[-74.0490371243358,40.08057024238],[-74.0482832688493,40.0803053468817]]}},{"type":"Feature","id":380904,"properties":{"OBJECTID":380904,"PRIMENAME":"Main Avenue","ELEVTYP_F":0,"ELEVTYP_T":0},"geometry":{"type":"LineString","coordinates":[[-74.0447206300903,40.0661957185774],[-74.0446472806087,40.0664523373057]]}},{"type":"Feature","id":382177,"properties":{"OBJECTID":382177,"PRIMENAME":"Sea Avenue","ELEVTYP_F":0,"ELEVTYP_T":0},"geometry":{"type":"LineString","coordinates":[[-74.0459920044811,40.0795832662129],[-74.0463522339008,40.0797037148082]]}},{"type":"Feature","id":382845,"properties":{"OBJECTID":382845,"PRIMENAME":"Sea Avenue","ELEVTYP_F":0,"ELEVTYP_T":0},"geometry":{"type":"LineString","coordinates":[[-74.0482832688493,40.0803053468817],[-74.0481977087056,40.0802752822512]]}},{"type":"Feature","id":383227,"properties":{"OBJECTID":383227,"PRIMENAME":"Main Avenue","ELEVTYP_F":0,"ELEVTYP_T":0},"geometry":{"type":"LineString","coordinates":[[-74.045810212166,40.0617963025209],[-74.0456460705335,40.0624743312129]]}},{"type":"Feature","id":387844,"properties":{"OBJECTID":387844,"PRIMENAME":"Sea Avenue","ELEVTYP_F":0,"ELEVTYP_T":0},"geometry":{"type":"LineString","coordinates":[[-74.0463522339008,40.0797037148082],[-74.0464705112991,40.0797400245995],[-74.0466265959878,40.0797879426567],[-74.0470952632771,40.0799318205766],[-74.0473468835521,40.0800203243634]]}},{"type":"Feature","id":390345,"properties":{"OBJECTID":390345,"PRIMENAME":"Main Avenue","ELEVTYP_F":0,"ELEVTYP_T":0},"geometry":{"type":"LineString","coordinates":[[-74.046135559744,40.0604665609249],[-74.0459705443171,40.0611371740936]]}},{"type":"Feature","id":392222,"properties":{"OBJECTID":392222,"PRIMENAME":"Main Avenue","ELEVTYP_F":0,"ELEVTYP_T":0},"geometry":{"type":"LineString","coordinates":[[-74.0464544652006,40.059184537867],[-74.0462837906434,40.0598642130044],[-74.046135559744,40.0604665609249]]}},{"type":"Feature","id":397011,"properties":{"OBJECTID":397011,"PRIMENAME":"Main Avenue","ELEVTYP_F":0,"ELEVTYP_T":0},"geometry":{"type":"LineString","coordinates":[[-74.0433918875932,40.071515041808],[-74.0433389271195,40.0717240264505],[-74.0430894378238,40.0727335951943]]}},{"type":"Feature","id":397273,"properties":{"OBJECTID":397273,"PRIMENAME":"Cincinnati Avenue","ELEVTYP_F":0,"ELEVTYP_T":0},"geometry":{"type":"LineString","coordinates":[[-74.0471339264597,40.0804181125502],[-74.0471561503084,40.0805755063137],[-74.0471775091747,40.0808040153825],[-74.0471778758792,40.0808079546443],[-74.0471853575821,40.0810867707855],[-74.0471697495005,40.0813333761576],[-74.047154296223,40.0815620835595],[-74.0471547496814,40.0816851370485],[-74.0471559579069,40.0820124858586],[-74.0471535335788,40.0821302779519]]}},{"type":"Feature","id":397405,"properties":{"OBJECTID":397405,"PRIMENAME":"Main Avenue","ELEVTYP_F":0,"ELEVTYP_T":0},"geometry":{"type":"LineString","coordinates":[[-74.0422259517461,40.0764520430113],[-74.0422223121686,40.0765739482677],[-74.0422353516284,40.0767134352107],[-74.0422573719033,40.0768993802628],[-74.0422936512185,40.0770425266629],[-74.0423482029884,40.0772321966828],[-74.0424044651989,40.0773531028068]]}},{"type":"Feature","id":397909,"properties":{"OBJECTID":397909,"PRIMENAME":"Cincinnati Avenue","ELEVTYP_F":0,"ELEVTYP_T":0},"geometry":{"type":"LineString","coordinates":[[-74.0463522339008,40.0797037148082],[-74.0465145890823,40.0797758438761],[-74.0465795406097,40.079804698719],[-74.0467094016703,40.079876722842],[-74.0468067177144,40.0799414265711],[-74.046894599255,40.0800168268728],[-74.0469731305098,40.0801064944438],[-74.0470284433998,40.0801889322834],[-74.0470987839377,40.0803295361414],[-74.0471019141784,40.0803357928822],[-74.0471339264597,40.0804181125502]]}},{"type":"Feature","id":399537,"properties":{"OBJECTID":399537,"PRIMENAME":"Main Avenue","ELEVTYP_F":0,"ELEVTYP_T":0},"geometry":{"type":"LineString","coordinates":[[-74.0430894378238,40.0727335951943],[-74.0429276496673,40.0733881828951],[-74.042786379531,40.0739666408797]]}},{"type":"Feature","id":401177,"properties":{"OBJECTID":401177,"PRIMENAME":"Main Avenue","ELEVTYP_F":0,"ELEVTYP_T":0},"geometry":{"type":"LineString","coordinates":[[-74.0459705443171,40.0611371740936],[-74.0459252334448,40.0613212626421],[-74.045810212166,40.0617963025209]]}},{"type":"Feature","id":433739,"properties":{"OBJECTID":433739,"PRIMENAME":"Main Avenue","ELEVTYP_F":0,"ELEVTYP_T":0},"geometry":{"type":"LineString","coordinates":[[-74.0447206300903,40.0661957185774],[-74.0448496111054,40.0656602281217],[-74.044993074384,40.0650745553788],[-74.0452750130471,40.0639532088043],[-74.0454837390877,40.063121480944]]}},{"type":"Feature","id":434804,"properties":{"OBJECTID":434804,"PRIMENAME":"Main Avenue","ELEVTYP_F":0,"ELEVTYP_T":0},"geometry":{"type":"LineString","coordinates":[[-74.0443170633823,40.0678016009792],[-74.0444815473676,40.0671351068748],[-74.0446472806087,40.0664523373057]]}}]}
