{"type":"Feature","properties":{"MUN":"BAY HEAD BORO","COUNTY":"OCEAN","MUN_LABEL":"Bay Head Borough","MUN_TYPE":"Borough","NAME":"Bay Head Borough","GNIS_NAME":"Borough of Bay Head"},"geometry":{"type":"Polygon","coordinates":[[[-74.0480287,40.0780424],[-74.0404905,40.0754981],[-74.0404997,40.075439],[-74.0404921,40.075435],[-74.0404715,40.0754408],[-74.0404379,40.0754722],[-74.0403735,40.0755094],[-74.040299,40.0755269],[-74.0402553,40.0755484],[-74.0402089,40.0755738],[-74.0402038,40.0755738],[-74.0401807,40.0755658],[-74.040168,40.075548],[-74.040163,40.0755224],[-74.0401761,40.075487],[-74.0402073,40.075428],[-74.0402388,40.0753939],[-74.0402564,40.0753749],[-74.0402695,40.0753434],[-74.0402748,40.075308],[-74.0402752,40.0752548],[-74.0402989,40.0751622],[-74.0403989,40.07479],[-74.0404086,40.0746896],[-74.0404242,40.0746502],[-74.0404423,40.0746384],[-74.0404987,40.0746367],[-74.0405424,40.0746231],[-74.0405761,40.0745818],[-74.0406207,40.0744282],[-74.0406577,40.0742707],[-74.0406687,40.0741663],[-74.0406563,40.0740913],[-74.0406108,40.0739906],[-74.0405793,40.0739136],[-74.0405795,40.0738801],[-74.0406055,40.0738289],[-74.0406469,40.0737778],[-74.0406907,40.0737504],[-74.040737,40.0737309],[-74.0407757,40.0736995],[-74.0408172,40.0736307],[-74.040862,40.0734554],[-74.0409052,40.0731382],[-74.0409654,40.072969],[-74.0409865,40.0728843],[-74.0409867,40.0728527],[-74.0409792,40.0728192],[-74.0409384,40.0727875],[-74.0409024,40.0727873],[-74.0408612,40.0728128],[-74.0408251,40.0728383],[-74.0407815,40.0728381],[-74.0407509,40.0728163],[-74.0407434,40.0727788],[-74.040752,40.0726429],[-74.0407788,40.0724833],[-74.040823,40.0723908],[-74.0410651,40.0716802],[-74.0411932,40.0713239],[-74.0412081,40.0712018],[-74.0411954,40.0711859],[-74.0411599,40.0711286],[-74.0411219,40.0710555],[-74.0411126,40.0709136],[-74.0411627,40.0707127],[-74.0412296,40.0704843],[-74.0413727,40.0701872],[-74.0414129,40.0700925],[-74.0414177,40.0700728],[-74.0414566,40.0699671],[-74.0414645,40.0699201],[-74.0414499,40.0698319],[-74.0414739,40.069685],[-74.0415752,40.0694034],[-74.0415766,40.0691917],[-74.0416087,40.0689744],[-74.041587,40.0687685],[-74.0415575,40.0686155],[-74.0416038,40.068533],[-74.0416624,40.0683848],[-74.041809,40.0679673],[-74.0419195,40.0676103],[-74.0419868,40.0670934],[-74.0421474,40.0667256],[-74.042309,40.0662478],[-74.0423465,40.0658463],[-74.042407,40.0654726],[-74.0425023,40.065022],[-74.0425916,40.0646262],[-74.042694,40.0643737],[-74.0427817,40.0641541],[-74.0428552,40.0639398],[-74.0429564,40.0636046],[-74.0430447,40.0633189],[-74.0432171,40.0625117],[-74.043222,40.0624892],[-74.0432224,40.0624877],[-74.043578,40.0608704],[-74.043926,40.0597056],[-74.0440867,40.0592178],[-74.0441343,40.0590167],[-74.044173,40.0586814],[-74.0442326,40.0584174],[-74.0443495,40.0581319],[-74.0444504,40.0578353],[-74.0445151,40.0575576],[-74.0504531,40.0588346],[-74.0518683,40.0591388],[-74.0499164,40.0668456],[-74.0497254,40.0675996],[-74.0494223,40.0688398],[-74.0495438,40.0688576],[-74.0508904,40.0690569],[-74.0525352,40.0693002],[-74.0521886,40.0714433],[-74.0548384,40.0717976],[-74.0553417,40.0765576],[-74.0553585,40.0768892],[-74.0553536,40.0770564],[-74.0553218,40.0772559],[-74.0549293,40.0792413],[-74.0548906,40.0795295],[-74.0548142,40.0803482],[-74.0547882,40.080443],[-74.0547865,40.0804424],[-74.0540086,40.0801797],[-74.054058,40.080077],[-74.0480287,40.0780424]]]}}
